<gpx xmlns:ns3="http://www.garmin.com/xmlschemas/TrackPointExtension/v1" xmlns="http://www.topografix.com/GPX/1/1" xmlns:xsi="http://www.w3.org/2001/XMLSchema-instance" xmlns:ns2="http://www.garmin.com/xmlschemas/GpxExtensions/v3" creator="Garmin Connect" version="1.1" xsi:schemaLocation="http://www.topografix.com/GPX/1/1 http://www.topografix.com/GPX/11.xsd">
  <extensions>
<distance>596.02</distance>
<average_hr>143.0</average_hr>
<average_speed>2.602730227651792</average_speed>
<start_time>2025-12-25T13:40:09+00:00</start_time>
<end_time>2025-12-25T13:43:57.998000+00:00</end_time>
<moving_time>214.0</moving_time>
<elapsed_time>228.998</elapsed_time>
</extensions>
<metadata>
    <link href="connect.garmin.com">
      <text>Garmin Connect</text>
    </link>
    <time>2025-12-25T13:40:09.000Z</time>
  </metadata>
  <trk>
    <name>厦门市 跑步</name>
    <type>running</type>
    <trkseg>
      <trkpt lat="24.489577151834964752197265625" lon="118.10253323055803775787353515625">
        <ele>7.80000019073486328125</ele>
        <time>2025-12-25T13:40:11.000Z</time>
        <extensions>
          <ns3:TrackPointExtension>
            <ns3:hr>144</ns3:hr>
          </ns3:TrackPointExtension>
        </extensions>
      </trkpt>
      <trkpt lat="24.48956139385700225830078125" lon="118.1025259383022785186767578125">
        <ele>7.80000019073486328125</ele>
        <time>2025-12-25T13:40:12.000Z</time>
        <extensions>
          <ns3:TrackPointExtension>
            <ns3:hr>144</ns3:hr>
          </ns3:TrackPointExtension>
        </extensions>
      </trkpt>
      <trkpt lat="24.489537589251995086669921875" lon="118.10251428745687007904052734375">
        <ele>8</ele>
        <time>2025-12-25T13:40:13.000Z</time>
        <extensions>
          <ns3:TrackPointExtension>
            <ns3:hr>144</ns3:hr>
          </ns3:TrackPointExtension>
        </extensions>
      </trkpt>
      <trkpt lat="24.48951252736151218414306640625" lon="118.10250355862081050872802734375">
        <ele>8</ele>
        <time>2025-12-25T13:40:14.000Z</time>
        <extensions>
          <ns3:TrackPointExtension>
            <ns3:hr>144</ns3:hr>
          </ns3:TrackPointExtension>
        </extensions>
      </trkpt>
      <trkpt lat="24.48948704637587070465087890625" lon="118.1024934165179729461669921875">
        <ele>8</ele>
        <time>2025-12-25T13:40:15.000Z</time>
        <extensions>
          <ns3:TrackPointExtension>
            <ns3:hr>144</ns3:hr>
          </ns3:TrackPointExtension>
        </extensions>
      </trkpt>
      <trkpt lat="24.4894613139331340789794921875" lon="118.1024850346148014068603515625">
        <ele>8.19999980926513671875</ele>
        <time>2025-12-25T13:40:16.000Z</time>
        <extensions>
          <ns3:TrackPointExtension>
            <ns3:hr>144</ns3:hr>
          </ns3:TrackPointExtension>
        </extensions>
      </trkpt>
      <trkpt lat="24.4894348271191120147705078125" lon="118.10247858054935932159423828125">
        <ele>8.19999980926513671875</ele>
        <time>2025-12-25T13:40:17.000Z</time>
        <extensions>
          <ns3:TrackPointExtension>
            <ns3:hr>144</ns3:hr>
          </ns3:TrackPointExtension>
        </extensions>
      </trkpt>
      <trkpt lat="24.48940842412412166595458984375" lon="118.1024712882936000823974609375">
        <ele>8.19999980926513671875</ele>
        <time>2025-12-25T13:40:18.000Z</time>
        <extensions>
          <ns3:TrackPointExtension>
            <ns3:hr>144</ns3:hr>
          </ns3:TrackPointExtension>
        </extensions>
      </trkpt>
      <trkpt lat="24.4893825240433216094970703125" lon="118.10246231965720653533935546875">
        <ele>8.3999996185302734375</ele>
        <time>2025-12-25T13:40:19.000Z</time>
        <extensions>
          <ns3:TrackPointExtension>
            <ns3:hr>144</ns3:hr>
          </ns3:TrackPointExtension>
        </extensions>
      </trkpt>
      <trkpt lat="24.4893567077815532684326171875" lon="118.1024525128304958343505859375">
        <ele>8.3999996185302734375</ele>
        <time>2025-12-25T13:40:20.000Z</time>
        <extensions>
          <ns3:TrackPointExtension>
            <ns3:hr>144</ns3:hr>
          </ns3:TrackPointExtension>
        </extensions>
      </trkpt>
      <trkpt lat="24.48933072388172149658203125" lon="118.10244270600378513336181640625">
        <ele>8.3999996185302734375</ele>
        <time>2025-12-25T13:40:21.000Z</time>
        <extensions>
          <ns3:TrackPointExtension>
            <ns3:hr>144</ns3:hr>
          </ns3:TrackPointExtension>
        </extensions>
      </trkpt>
      <trkpt lat="24.4893044047057628631591796875" lon="118.10243298299610614776611328125">
        <ele>8.3999996185302734375</ele>
        <time>2025-12-25T13:40:22.000Z</time>
        <extensions>
          <ns3:TrackPointExtension>
            <ns3:hr>145</ns3:hr>
          </ns3:TrackPointExtension>
        </extensions>
      </trkpt>
      <trkpt lat="24.4892777502536773681640625" lon="118.102424181997776031494140625">
        <ele>8.6000003814697265625</ele>
        <time>2025-12-25T13:40:23.000Z</time>
        <extensions>
          <ns3:TrackPointExtension>
            <ns3:hr>145</ns3:hr>
          </ns3:TrackPointExtension>
        </extensions>
      </trkpt>
      <trkpt lat="24.48925084434449672698974609375" lon="118.10241638682782649993896484375">
        <ele>8.80000019073486328125</ele>
        <time>2025-12-25T13:40:24.000Z</time>
        <extensions>
          <ns3:TrackPointExtension>
            <ns3:hr>145</ns3:hr>
          </ns3:TrackPointExtension>
        </extensions>
      </trkpt>
      <trkpt lat="24.48922368697822093963623046875" lon="118.10240951366722583770751953125">
        <ele>8.80000019073486328125</ele>
        <time>2025-12-25T13:40:25.000Z</time>
        <extensions>
          <ns3:TrackPointExtension>
            <ns3:hr>145</ns3:hr>
          </ns3:TrackPointExtension>
        </extensions>
      </trkpt>
      <trkpt lat="24.48919636197388172149658203125" lon="118.10240331105887889862060546875">
        <ele>9</ele>
        <time>2025-12-25T13:40:26.000Z</time>
        <extensions>
          <ns3:TrackPointExtension>
            <ns3:hr>145</ns3:hr>
          </ns3:TrackPointExtension>
        </extensions>
      </trkpt>
      <trkpt lat="24.48916886933147907257080078125" lon="118.10239761136472225189208984375">
        <ele>9.19999980926513671875</ele>
        <time>2025-12-25T13:40:27.000Z</time>
        <extensions>
          <ns3:TrackPointExtension>
            <ns3:hr>145</ns3:hr>
          </ns3:TrackPointExtension>
        </extensions>
      </trkpt>
      <trkpt lat="24.48914137668907642364501953125" lon="118.1023924984037876129150390625">
        <ele>9.3999996185302734375</ele>
        <time>2025-12-25T13:40:28.000Z</time>
        <extensions>
          <ns3:TrackPointExtension>
            <ns3:hr>145</ns3:hr>
          </ns3:TrackPointExtension>
        </extensions>
      </trkpt>
      <trkpt lat="24.48911371640861034393310546875" lon="118.1023878045380115509033203125">
        <ele>9.6000003814697265625</ele>
        <time>2025-12-25T13:40:29.000Z</time>
        <extensions>
          <ns3:TrackPointExtension>
            <ns3:hr>145</ns3:hr>
          </ns3:TrackPointExtension>
        </extensions>
      </trkpt>
      <trkpt lat="24.48908588849008083343505859375" lon="118.10238369740545749664306640625">
        <ele>9.80000019073486328125</ele>
        <time>2025-12-25T13:40:30.000Z</time>
        <extensions>
          <ns3:TrackPointExtension>
            <ns3:hr>145</ns3:hr>
          </ns3:TrackPointExtension>
        </extensions>
      </trkpt>
      <trkpt lat="24.48905806057155132293701171875" lon="118.1023800931870937347412109375">
        <ele>10</ele>
        <time>2025-12-25T13:40:31.000Z</time>
        <extensions>
          <ns3:TrackPointExtension>
            <ns3:hr>145</ns3:hr>
          </ns3:TrackPointExtension>
        </extensions>
      </trkpt>
      <trkpt lat="24.48903006501495838165283203125" lon="118.10237699188292026519775390625">
        <ele>10.19999980926513671875</ele>
        <time>2025-12-25T13:40:32.000Z</time>
        <extensions>
          <ns3:TrackPointExtension>
            <ns3:hr>145</ns3:hr>
          </ns3:TrackPointExtension>
        </extensions>
      </trkpt>
      <trkpt lat="24.4890019856393337249755859375" lon="118.10237430967390537261962890625">
        <ele>10.3999996185302734375</ele>
        <time>2025-12-25T13:40:33.000Z</time>
        <extensions>
          <ns3:TrackPointExtension>
            <ns3:hr>145</ns3:hr>
          </ns3:TrackPointExtension>
        </extensions>
      </trkpt>
      <trkpt lat="24.48897399008274078369140625" lon="118.10237179510295391082763671875">
        <ele>10.3999996185302734375</ele>
        <time>2025-12-25T13:40:34.000Z</time>
        <extensions>
          <ns3:TrackPointExtension>
            <ns3:hr>145</ns3:hr>
          </ns3:TrackPointExtension>
        </extensions>
      </trkpt>
      <trkpt lat="24.4889459945261478424072265625" lon="118.102369196712970733642578125">
        <ele>10.6000003814697265625</ele>
        <time>2025-12-25T13:40:35.000Z</time>
        <extensions>
          <ns3:TrackPointExtension>
            <ns3:hr>145</ns3:hr>
          </ns3:TrackPointExtension>
        </extensions>
      </trkpt>
      <trkpt lat="24.48891825042665004730224609375" lon="118.1023656763136386871337890625">
        <ele>10.6000003814697265625</ele>
        <time>2025-12-25T13:40:36.000Z</time>
        <extensions>
          <ns3:TrackPointExtension>
            <ns3:hr>145</ns3:hr>
          </ns3:TrackPointExtension>
        </extensions>
      </trkpt>
      <trkpt lat="24.488890506327152252197265625" lon="118.10236190445721149444580078125">
        <ele>10.80000019073486328125</ele>
        <time>2025-12-25T13:40:37.000Z</time>
        <extensions>
          <ns3:TrackPointExtension>
            <ns3:hr>145</ns3:hr>
          </ns3:TrackPointExtension>
        </extensions>
      </trkpt>
      <trkpt lat="24.48886276222765445709228515625" lon="118.1023593060672283172607421875">
        <ele>10.80000019073486328125</ele>
        <time>2025-12-25T13:40:38.000Z</time>
        <extensions>
          <ns3:TrackPointExtension>
            <ns3:hr>145</ns3:hr>
          </ns3:TrackPointExtension>
        </extensions>
      </trkpt>
      <trkpt lat="24.488834850490093231201171875" lon="118.1023581326007843017578125">
        <ele>11</ele>
        <time>2025-12-25T13:40:39.000Z</time>
        <extensions>
          <ns3:TrackPointExtension>
            <ns3:hr>145</ns3:hr>
          </ns3:TrackPointExtension>
        </extensions>
      </trkpt>
      <trkpt lat="24.4888068549335002899169921875" lon="118.10235838405787944793701171875">
        <ele>11</ele>
        <time>2025-12-25T13:40:40.000Z</time>
        <extensions>
          <ns3:TrackPointExtension>
            <ns3:hr>145</ns3:hr>
          </ns3:TrackPointExtension>
        </extensions>
      </trkpt>
      <trkpt lat="24.4887786917388439178466796875" lon="118.1023599766194820404052734375">
        <ele>11</ele>
        <time>2025-12-25T13:40:41.000Z</time>
        <extensions>
          <ns3:TrackPointExtension>
            <ns3:hr>145</ns3:hr>
          </ns3:TrackPointExtension>
        </extensions>
      </trkpt>
      <trkpt lat="24.48875044472515583038330078125" lon="118.10236257500946521759033203125">
        <ele>11</ele>
        <time>2025-12-25T13:40:42.000Z</time>
        <extensions>
          <ns3:TrackPointExtension>
            <ns3:hr>145</ns3:hr>
          </ns3:TrackPointExtension>
        </extensions>
      </trkpt>
      <trkpt lat="24.48872194625437259674072265625" lon="118.1023663468658924102783203125">
        <ele>11</ele>
        <time>2025-12-25T13:40:43.000Z</time>
        <extensions>
          <ns3:TrackPointExtension>
            <ns3:hr>145</ns3:hr>
          </ns3:TrackPointExtension>
        </extensions>
      </trkpt>
      <trkpt lat="24.488693363964557647705078125" lon="118.10237112455070018768310546875">
        <ele>10.80000019073486328125</ele>
        <time>2025-12-25T13:40:44.000Z</time>
        <extensions>
          <ns3:TrackPointExtension>
            <ns3:hr>145</ns3:hr>
          </ns3:TrackPointExtension>
        </extensions>
      </trkpt>
      <trkpt lat="24.48866461403667926788330078125" lon="118.10237682424485683441162109375">
        <ele>10.80000019073486328125</ele>
        <time>2025-12-25T13:40:45.000Z</time>
        <extensions>
          <ns3:TrackPointExtension>
            <ns3:hr>145</ns3:hr>
          </ns3:TrackPointExtension>
        </extensions>
      </trkpt>
      <trkpt lat="24.48863603174686431884765625" lon="118.10238319449126720428466796875">
        <ele>10.6000003814697265625</ele>
        <time>2025-12-25T13:40:46.000Z</time>
        <extensions>
          <ns3:TrackPointExtension>
            <ns3:hr>143</ns3:hr>
          </ns3:TrackPointExtension>
        </extensions>
      </trkpt>
      <trkpt lat="24.48860778473317623138427734375" lon="118.1023903191089630126953125">
        <ele>10.6000003814697265625</ele>
        <time>2025-12-25T13:40:47.000Z</time>
        <extensions>
          <ns3:TrackPointExtension>
            <ns3:hr>143</ns3:hr>
          </ns3:TrackPointExtension>
        </extensions>
      </trkpt>
      <trkpt lat="24.48857978917658329010009765625" lon="118.10239811427891254425048828125">
        <ele>10.3999996185302734375</ele>
        <time>2025-12-25T13:40:48.000Z</time>
        <extensions>
          <ns3:TrackPointExtension>
            <ns3:hr>143</ns3:hr>
          </ns3:TrackPointExtension>
        </extensions>
      </trkpt>
      <trkpt lat="24.48855196125805377960205078125" lon="118.10240666382014751434326171875">
        <ele>10.3999996185302734375</ele>
        <time>2025-12-25T13:40:49.000Z</time>
        <extensions>
          <ns3:TrackPointExtension>
            <ns3:hr>143</ns3:hr>
          </ns3:TrackPointExtension>
        </extensions>
      </trkpt>
      <trkpt lat="24.48852430097758769989013671875" lon="118.10241621918976306915283203125">
        <ele>10.6000003814697265625</ele>
        <time>2025-12-25T13:40:50.000Z</time>
        <extensions>
          <ns3:TrackPointExtension>
            <ns3:hr>143</ns3:hr>
          </ns3:TrackPointExtension>
        </extensions>
      </trkpt>
      <trkpt lat="24.4884970597922801971435546875" lon="118.10242661274969577789306640625">
        <ele>10.6000003814697265625</ele>
        <time>2025-12-25T13:40:51.000Z</time>
        <extensions>
          <ns3:TrackPointExtension>
            <ns3:hr>143</ns3:hr>
          </ns3:TrackPointExtension>
        </extensions>
      </trkpt>
      <trkpt lat="24.48846981860697269439697265625" lon="118.10243767686188220977783203125">
        <ele>10.6000003814697265625</ele>
        <time>2025-12-25T13:40:52.000Z</time>
        <extensions>
          <ns3:TrackPointExtension>
            <ns3:hr>143</ns3:hr>
          </ns3:TrackPointExtension>
        </extensions>
      </trkpt>
      <trkpt lat="24.488442577421665191650390625" lon="118.10244941152632236480712890625">
        <ele>10.6000003814697265625</ele>
        <time>2025-12-25T13:40:53.000Z</time>
        <extensions>
          <ns3:TrackPointExtension>
            <ns3:hr>143</ns3:hr>
          </ns3:TrackPointExtension>
        </extensions>
      </trkpt>
      <trkpt lat="24.48841533623635768890380859375" lon="118.102461732923984527587890625">
        <ele>10.6000003814697265625</ele>
        <time>2025-12-25T13:40:54.000Z</time>
        <extensions>
          <ns3:TrackPointExtension>
            <ns3:hr>143</ns3:hr>
          </ns3:TrackPointExtension>
        </extensions>
      </trkpt>
      <trkpt lat="24.4883884303271770477294921875" lon="118.10247438959777355194091796875">
        <ele>10.80000019073486328125</ele>
        <time>2025-12-25T13:40:55.000Z</time>
        <extensions>
          <ns3:TrackPointExtension>
            <ns3:hr>147</ns3:hr>
          </ns3:TrackPointExtension>
        </extensions>
      </trkpt>
      <trkpt lat="24.4883619435131549835205078125" lon="118.10248746536672115325927734375">
        <ele>10.80000019073486328125</ele>
        <time>2025-12-25T13:40:56.000Z</time>
        <extensions>
          <ns3:TrackPointExtension>
            <ns3:hr>147</ns3:hr>
          </ns3:TrackPointExtension>
        </extensions>
      </trkpt>
      <trkpt lat="24.48833604343235492706298828125" lon="118.10250104404985904693603515625">
        <ele>10.6000003814697265625</ele>
        <time>2025-12-25T13:40:57.000Z</time>
        <extensions>
          <ns3:TrackPointExtension>
            <ns3:hr>147</ns3:hr>
          </ns3:TrackPointExtension>
        </extensions>
      </trkpt>
      <trkpt lat="24.48831081390380859375" lon="118.1025152094662189483642578125">
        <ele>10.6000003814697265625</ele>
        <time>2025-12-25T13:40:58.000Z</time>
        <extensions>
          <ns3:TrackPointExtension>
            <ns3:hr>147</ns3:hr>
          </ns3:TrackPointExtension>
        </extensions>
      </trkpt>
      <trkpt lat="24.48828625492751598358154296875" lon="118.1025302968919277191162109375">
        <ele>10.3999996185302734375</ele>
        <time>2025-12-25T13:40:59.000Z</time>
        <extensions>
          <ns3:TrackPointExtension>
            <ns3:hr>147</ns3:hr>
          </ns3:TrackPointExtension>
        </extensions>
      </trkpt>
      <trkpt lat="24.48826228268444538116455078125" lon="118.10254630632698535919189453125">
        <ele>10.3999996185302734375</ele>
        <time>2025-12-25T13:41:00.000Z</time>
        <extensions>
          <ns3:TrackPointExtension>
            <ns3:hr>147</ns3:hr>
          </ns3:TrackPointExtension>
        </extensions>
      </trkpt>
      <trkpt lat="24.4882388971745967864990234375" lon="118.10256323777139186859130859375">
        <ele>10.19999980926513671875</ele>
        <time>2025-12-25T13:41:01.000Z</time>
        <extensions>
          <ns3:TrackPointExtension>
            <ns3:hr>147</ns3:hr>
          </ns3:TrackPointExtension>
        </extensions>
      </trkpt>
      <trkpt lat="24.4882160983979701995849609375" lon="118.10258100740611553192138671875">
        <ele>10</ele>
        <time>2025-12-25T13:41:02.000Z</time>
        <extensions>
          <ns3:TrackPointExtension>
            <ns3:hr>147</ns3:hr>
          </ns3:TrackPointExtension>
        </extensions>
      </trkpt>
      <trkpt lat="24.488193802535533905029296875" lon="118.1025996990501880645751953125">
        <ele>9.80000019073486328125</ele>
        <time>2025-12-25T13:41:03.000Z</time>
        <extensions>
          <ns3:TrackPointExtension>
            <ns3:hr>148</ns3:hr>
          </ns3:TrackPointExtension>
        </extensions>
      </trkpt>
      <trkpt lat="24.48817209340631961822509765625" lon="118.102619312703609466552734375">
        <ele>9.6000003814697265625</ele>
        <time>2025-12-25T13:41:04.000Z</time>
        <extensions>
          <ns3:TrackPointExtension>
            <ns3:hr>148</ns3:hr>
          </ns3:TrackPointExtension>
        </extensions>
      </trkpt>
      <trkpt lat="24.48815113864839076995849609375" lon="118.10263968072831630706787109375">
        <ele>9.19999980926513671875</ele>
        <time>2025-12-25T13:41:05.000Z</time>
        <extensions>
          <ns3:TrackPointExtension>
            <ns3:hr>148</ns3:hr>
          </ns3:TrackPointExtension>
        </extensions>
      </trkpt>
      <trkpt lat="24.48813353665173053741455078125" lon="118.10265786945819854736328125">
        <ele>8.80000019073486328125</ele>
        <time>2025-12-25T13:41:06.000Z</time>
        <extensions>
          <ns3:TrackPointExtension>
            <ns3:hr>148</ns3:hr>
          </ns3:TrackPointExtension>
        </extensions>
      </trkpt>
      <trkpt lat="24.488114006817340850830078125" lon="118.1026794947683811187744140625">
        <ele>8.3999996185302734375</ele>
        <time>2025-12-25T13:41:07.000Z</time>
        <extensions>
          <ns3:TrackPointExtension>
            <ns3:hr>148</ns3:hr>
          </ns3:TrackPointExtension>
        </extensions>
      </trkpt>
      <trkpt lat="24.48809556663036346435546875" lon="118.10270212590694427490234375">
        <ele>7.80000019073486328125</ele>
        <time>2025-12-25T13:41:08.000Z</time>
        <extensions>
          <ns3:TrackPointExtension>
            <ns3:hr>148</ns3:hr>
          </ns3:TrackPointExtension>
        </extensions>
      </trkpt>
      <trkpt lat="24.4880776293575763702392578125" lon="118.1027250923216342926025390625">
        <ele>7.400000095367431640625</ele>
        <time>2025-12-25T13:41:09.000Z</time>
        <extensions>
          <ns3:TrackPointExtension>
            <ns3:hr>148</ns3:hr>
          </ns3:TrackPointExtension>
        </extensions>
      </trkpt>
      <trkpt lat="24.48806011117994785308837890625" lon="118.102748058736324310302734375">
        <ele>7.19999980926513671875</ele>
        <time>2025-12-25T13:41:10.000Z</time>
        <extensions>
          <ns3:TrackPointExtension>
            <ns3:hr>148</ns3:hr>
          </ns3:TrackPointExtension>
        </extensions>
      </trkpt>
      <trkpt lat="24.48804284445941448211669921875" lon="118.1027711927890777587890625">
        <ele>7.19999980926513671875</ele>
        <time>2025-12-25T13:41:11.000Z</time>
        <extensions>
          <ns3:TrackPointExtension>
            <ns3:hr>148</ns3:hr>
          </ns3:TrackPointExtension>
        </extensions>
      </trkpt>
      <trkpt lat="24.48802356608211994171142578125" lon="118.10279726050794124603271484375">
        <ele>7</ele>
        <time>2025-12-25T13:41:12.000Z</time>
        <extensions>
          <ns3:TrackPointExtension>
            <ns3:hr>148</ns3:hr>
          </ns3:TrackPointExtension>
        </extensions>
      </trkpt>
      <trkpt lat="24.48800613172352313995361328125" lon="118.102820478379726409912109375">
        <ele>6.80000019073486328125</ele>
        <time>2025-12-25T13:41:13.000Z</time>
        <extensions>
          <ns3:TrackPointExtension>
            <ns3:hr>148</ns3:hr>
          </ns3:TrackPointExtension>
        </extensions>
      </trkpt>
      <trkpt lat="24.48799070902168750762939453125" lon="118.10284084640443325042724609375">
        <ele>6.80000019073486328125</ele>
        <time>2025-12-25T13:41:14.000Z</time>
        <extensions>
          <ns3:TrackPointExtension>
            <ns3:hr>148</ns3:hr>
          </ns3:TrackPointExtension>
        </extensions>
      </trkpt>
      <trkpt lat="24.4879733584821224212646484375" lon="118.1028638966381549835205078125">
        <ele>6.599999904632568359375</ele>
        <time>2025-12-25T13:41:15.000Z</time>
        <extensions>
          <ns3:TrackPointExtension>
            <ns3:hr>147</ns3:hr>
          </ns3:TrackPointExtension>
        </extensions>
      </trkpt>
      <trkpt lat="24.48795617558062076568603515625" lon="118.10288728214800357818603515625">
        <ele>6.400000095367431640625</ele>
        <time>2025-12-25T13:41:16.000Z</time>
        <extensions>
          <ns3:TrackPointExtension>
            <ns3:hr>147</ns3:hr>
          </ns3:TrackPointExtension>
        </extensions>
      </trkpt>
      <trkpt lat="24.48793924413621425628662109375" lon="118.10291108675301074981689453125">
        <ele>6.599999904632568359375</ele>
        <time>2025-12-25T13:41:17.000Z</time>
        <extensions>
          <ns3:TrackPointExtension>
            <ns3:hr>147</ns3:hr>
          </ns3:TrackPointExtension>
        </extensions>
      </trkpt>
      <trkpt lat="24.48792264796793460845947265625" lon="118.1029353104531764984130859375">
        <ele>6.80000019073486328125</ele>
        <time>2025-12-25T13:41:18.000Z</time>
        <extensions>
          <ns3:TrackPointExtension>
            <ns3:hr>147</ns3:hr>
          </ns3:TrackPointExtension>
        </extensions>
      </trkpt>
      <trkpt lat="24.487906135618686676025390625" lon="118.10295961797237396240234375">
        <ele>7</ele>
        <time>2025-12-25T13:41:19.000Z</time>
        <extensions>
          <ns3:TrackPointExtension>
            <ns3:hr>147</ns3:hr>
          </ns3:TrackPointExtension>
        </extensions>
      </trkpt>
      <trkpt lat="24.48788979090750217437744140625" lon="118.102984093129634857177734375">
        <ele>7.19999980926513671875</ele>
        <time>2025-12-25T13:41:20.000Z</time>
        <extensions>
          <ns3:TrackPointExtension>
            <ns3:hr>147</ns3:hr>
          </ns3:TrackPointExtension>
        </extensions>
      </trkpt>
      <trkpt lat="24.4878737814724445343017578125" lon="118.10300915502011775970458984375">
        <ele>7.19999980926513671875</ele>
        <time>2025-12-25T13:41:21.000Z</time>
        <extensions>
          <ns3:TrackPointExtension>
            <ns3:hr>147</ns3:hr>
          </ns3:TrackPointExtension>
        </extensions>
      </trkpt>
      <trkpt lat="24.487858526408672332763671875" lon="118.10303497128188610076904296875">
        <ele>7.19999980926513671875</ele>
        <time>2025-12-25T13:41:22.000Z</time>
        <extensions>
          <ns3:TrackPointExtension>
            <ns3:hr>147</ns3:hr>
          </ns3:TrackPointExtension>
        </extensions>
      </trkpt>
      <trkpt lat="24.48784469626843929290771484375" lon="118.10306196101009845733642578125">
        <ele>7.400000095367431640625</ele>
        <time>2025-12-25T13:41:23.000Z</time>
        <extensions>
          <ns3:TrackPointExtension>
            <ns3:hr>147</ns3:hr>
          </ns3:TrackPointExtension>
        </extensions>
      </trkpt>
      <trkpt lat="24.487832374870777130126953125" lon="118.10309012420475482940673828125">
        <ele>7.599999904632568359375</ele>
        <time>2025-12-25T13:41:24.000Z</time>
        <extensions>
          <ns3:TrackPointExtension>
            <ns3:hr>147</ns3:hr>
          </ns3:TrackPointExtension>
        </extensions>
      </trkpt>
      <trkpt lat="24.48782105930149555206298828125" lon="118.10311920940876007080078125">
        <ele>8</ele>
        <time>2025-12-25T13:41:25.000Z</time>
        <extensions>
          <ns3:TrackPointExtension>
            <ns3:hr>147</ns3:hr>
          </ns3:TrackPointExtension>
        </extensions>
      </trkpt>
      <trkpt lat="24.4878105819225311279296875" lon="118.10314829461276531219482421875">
        <ele>8.3999996185302734375</ele>
        <time>2025-12-25T13:41:26.000Z</time>
        <extensions>
          <ns3:TrackPointExtension>
            <ns3:hr>147</ns3:hr>
          </ns3:TrackPointExtension>
        </extensions>
      </trkpt>
      <trkpt lat="24.48780111037194728851318359375" lon="118.10317645780742168426513671875">
        <ele>9</ele>
        <time>2025-12-25T13:41:27.000Z</time>
        <extensions>
          <ns3:TrackPointExtension>
            <ns3:hr>147</ns3:hr>
          </ns3:TrackPointExtension>
        </extensions>
      </trkpt>
      <trkpt lat="24.48779247701168060302734375" lon="118.10320378281176090240478515625">
        <ele>9.3999996185302734375</ele>
        <time>2025-12-25T13:41:28.000Z</time>
        <extensions>
          <ns3:TrackPointExtension>
            <ns3:hr>147</ns3:hr>
          </ns3:TrackPointExtension>
        </extensions>
      </trkpt>
      <trkpt lat="24.4877849332988262176513671875" lon="118.10323052108287811279296875">
        <ele>9.80000019073486328125</ele>
        <time>2025-12-25T13:41:29.000Z</time>
        <extensions>
          <ns3:TrackPointExtension>
            <ns3:hr>147</ns3:hr>
          </ns3:TrackPointExtension>
        </extensions>
      </trkpt>
      <trkpt lat="24.4877783954143524169921875" lon="118.10325759463012218475341796875">
        <ele>10.3999996185302734375</ele>
        <time>2025-12-25T13:41:30.000Z</time>
        <extensions>
          <ns3:TrackPointExtension>
            <ns3:hr>147</ns3:hr>
          </ns3:TrackPointExtension>
        </extensions>
      </trkpt>
      <trkpt lat="24.487772695720195770263671875" lon="118.1032856740057468414306640625">
        <ele>10.80000019073486328125</ele>
        <time>2025-12-25T13:41:31.000Z</time>
        <extensions>
          <ns3:TrackPointExtension>
            <ns3:hr>147</ns3:hr>
          </ns3:TrackPointExtension>
        </extensions>
      </trkpt>
      <trkpt lat="24.487767331302165985107421875" lon="118.1033165194094181060791015625">
        <ele>11.19999980926513671875</ele>
        <time>2025-12-25T13:41:32.000Z</time>
        <extensions>
          <ns3:TrackPointExtension>
            <ns3:hr>147</ns3:hr>
          </ns3:TrackPointExtension>
        </extensions>
      </trkpt>
      <trkpt lat="24.48776272125542163848876953125" lon="118.10334593988955020904541015625">
        <ele>11.6000003814697265625</ele>
        <time>2025-12-25T13:41:33.000Z</time>
        <extensions>
          <ns3:TrackPointExtension>
            <ns3:hr>147</ns3:hr>
          </ns3:TrackPointExtension>
        </extensions>
      </trkpt>
      <trkpt lat="24.4877581112086772918701171875" lon="118.103375695645809173583984375">
        <ele>12</ele>
        <time>2025-12-25T13:41:34.000Z</time>
        <extensions>
          <ns3:TrackPointExtension>
            <ns3:hr>147</ns3:hr>
          </ns3:TrackPointExtension>
        </extensions>
      </trkpt>
      <trkpt lat="24.4877537526190280914306640625" lon="118.10340612195432186126708984375">
        <ele>12</ele>
        <time>2025-12-25T13:41:35.000Z</time>
        <extensions>
          <ns3:TrackPointExtension>
            <ns3:hr>147</ns3:hr>
          </ns3:TrackPointExtension>
        </extensions>
      </trkpt>
      <trkpt lat="24.4877497293055057525634765625" lon="118.103437386453151702880859375">
        <ele>11.80000019073486328125</ele>
        <time>2025-12-25T13:41:36.000Z</time>
        <extensions>
          <ns3:TrackPointExtension>
            <ns3:hr>147</ns3:hr>
          </ns3:TrackPointExtension>
        </extensions>
      </trkpt>
      <trkpt lat="24.4877460412681102752685546875" lon="118.1034694053232669830322265625">
        <ele>11.6000003814697265625</ele>
        <time>2025-12-25T13:41:37.000Z</time>
        <extensions>
          <ns3:TrackPointExtension>
            <ns3:hr>147</ns3:hr>
          </ns3:TrackPointExtension>
        </extensions>
      </trkpt>
      <trkpt lat="24.4877426885068416595458984375" lon="118.103501759469509124755859375">
        <ele>11.6000003814697265625</ele>
        <time>2025-12-25T13:41:38.000Z</time>
        <extensions>
          <ns3:TrackPointExtension>
            <ns3:hr>147</ns3:hr>
          </ns3:TrackPointExtension>
        </extensions>
      </trkpt>
      <trkpt lat="24.48773992247879505157470703125" lon="118.10353268869221210479736328125">
        <ele>11.3999996185302734375</ele>
        <time>2025-12-25T13:41:39.000Z</time>
        <extensions>
          <ns3:TrackPointExtension>
            <ns3:hr>147</ns3:hr>
          </ns3:TrackPointExtension>
        </extensions>
      </trkpt>
      <trkpt lat="24.48773757554590702056884765625" lon="118.10356638394296169281005859375">
        <ele>11.19999980926513671875</ele>
        <time>2025-12-25T13:41:40.000Z</time>
        <extensions>
          <ns3:TrackPointExtension>
            <ns3:hr>147</ns3:hr>
          </ns3:TrackPointExtension>
        </extensions>
      </trkpt>
      <trkpt lat="24.4877359829843044281005859375" lon="118.10359706170856952667236328125">
        <ele>11.19999980926513671875</ele>
        <time>2025-12-25T13:41:41.000Z</time>
        <extensions>
          <ns3:TrackPointExtension>
            <ns3:hr>147</ns3:hr>
          </ns3:TrackPointExtension>
        </extensions>
      </trkpt>
      <trkpt lat="24.4877349771559238433837890625" lon="118.1036367081105709075927734375">
        <ele>11</ele>
        <time>2025-12-25T13:41:42.000Z</time>
        <extensions>
          <ns3:TrackPointExtension>
            <ns3:hr>147</ns3:hr>
          </ns3:TrackPointExtension>
        </extensions>
      </trkpt>
      <trkpt lat="24.48773522861301898956298828125" lon="118.1036682240664958953857421875">
        <ele>10.80000019073486328125</ele>
        <time>2025-12-25T13:41:43.000Z</time>
        <extensions>
          <ns3:TrackPointExtension>
            <ns3:hr>147</ns3:hr>
          </ns3:TrackPointExtension>
        </extensions>
      </trkpt>
      <trkpt lat="24.48773656971752643585205078125" lon="118.10369965620338916778564453125">
        <ele>10.3999996185302734375</ele>
        <time>2025-12-25T13:41:44.000Z</time>
        <extensions>
          <ns3:TrackPointExtension>
            <ns3:hr>147</ns3:hr>
          </ns3:TrackPointExtension>
        </extensions>
      </trkpt>
      <trkpt lat="24.4877390004694461822509765625" lon="118.10373075306415557861328125">
        <ele>10</ele>
        <time>2025-12-25T13:41:45.000Z</time>
        <extensions>
          <ns3:TrackPointExtension>
            <ns3:hr>148</ns3:hr>
          </ns3:TrackPointExtension>
        </extensions>
      </trkpt>
      <trkpt lat="24.48774260468780994415283203125" lon="118.1037617661058902740478515625">
        <ele>9.3999996185302734375</ele>
        <time>2025-12-25T13:41:46.000Z</time>
        <extensions>
          <ns3:TrackPointExtension>
            <ns3:hr>148</ns3:hr>
          </ns3:TrackPointExtension>
        </extensions>
      </trkpt>
      <trkpt lat="24.487747214734554290771484375" lon="118.1037929467856884002685546875">
        <ele>9</ele>
        <time>2025-12-25T13:41:47.000Z</time>
        <extensions>
          <ns3:TrackPointExtension>
            <ns3:hr>148</ns3:hr>
          </ns3:TrackPointExtension>
        </extensions>
      </trkpt>
      <trkpt lat="24.48775224387645721435546875" lon="118.103824295103549957275390625">
        <ele>8.80000019073486328125</ele>
        <time>2025-12-25T13:41:48.000Z</time>
        <extensions>
          <ns3:TrackPointExtension>
            <ns3:hr>148</ns3:hr>
          </ns3:TrackPointExtension>
        </extensions>
      </trkpt>
      <trkpt lat="24.48775752447545528411865234375" lon="118.1038556434214115142822265625">
        <ele>8.6000003814697265625</ele>
        <time>2025-12-25T13:41:49.000Z</time>
        <extensions>
          <ns3:TrackPointExtension>
            <ns3:hr>148</ns3:hr>
          </ns3:TrackPointExtension>
        </extensions>
      </trkpt>
      <trkpt lat="24.48776339180767536163330078125" lon="118.10388657264411449432373046875">
        <ele>8.3999996185302734375</ele>
        <time>2025-12-25T13:41:50.000Z</time>
        <extensions>
          <ns3:TrackPointExtension>
            <ns3:hr>148</ns3:hr>
          </ns3:TrackPointExtension>
        </extensions>
      </trkpt>
      <trkpt lat="24.487770013511180877685546875" lon="118.10391725040972232818603515625">
        <ele>8.19999980926513671875</ele>
        <time>2025-12-25T13:41:51.000Z</time>
        <extensions>
          <ns3:TrackPointExtension>
            <ns3:hr>148</ns3:hr>
          </ns3:TrackPointExtension>
        </extensions>
      </trkpt>
      <trkpt lat="24.487777389585971832275390625" lon="118.10394759289920330047607421875">
        <ele>8</ele>
        <time>2025-12-25T13:41:52.000Z</time>
        <extensions>
          <ns3:TrackPointExtension>
            <ns3:hr>148</ns3:hr>
          </ns3:TrackPointExtension>
        </extensions>
      </trkpt>
      <trkpt lat="24.48778577148914337158203125" lon="118.1039773486554622650146484375">
        <ele>7.80000019073486328125</ele>
        <time>2025-12-25T13:41:53.000Z</time>
        <extensions>
          <ns3:TrackPointExtension>
            <ns3:hr>148</ns3:hr>
          </ns3:TrackPointExtension>
        </extensions>
      </trkpt>
      <trkpt lat="24.487794823944568634033203125" lon="118.10400693677365779876708984375">
        <ele>7.599999904632568359375</ele>
        <time>2025-12-25T13:41:54.000Z</time>
        <extensions>
          <ns3:TrackPointExtension>
            <ns3:hr>149</ns3:hr>
          </ns3:TrackPointExtension>
        </extensions>
      </trkpt>
      <trkpt lat="24.4878043793141841888427734375" lon="118.1040363572537899017333984375">
        <ele>7.400000095367431640625</ele>
        <time>2025-12-25T13:41:55.000Z</time>
        <extensions>
          <ns3:TrackPointExtension>
            <ns3:hr>149</ns3:hr>
          </ns3:TrackPointExtension>
        </extensions>
      </trkpt>
      <trkpt lat="24.487814605236053466796875" lon="118.10406561009585857391357421875">
        <ele>7</ele>
        <time>2025-12-25T13:41:56.000Z</time>
        <extensions>
          <ns3:TrackPointExtension>
            <ns3:hr>149</ns3:hr>
          </ns3:TrackPointExtension>
        </extensions>
      </trkpt>
      <trkpt lat="24.4878255017101764678955078125" lon="118.10409461148083209991455078125">
        <ele>6.80000019073486328125</ele>
        <time>2025-12-25T13:41:57.000Z</time>
        <extensions>
          <ns3:TrackPointExtension>
            <ns3:hr>149</ns3:hr>
          </ns3:TrackPointExtension>
        </extensions>
      </trkpt>
      <trkpt lat="24.48783698491752147674560546875" lon="118.10412327758967876434326171875">
        <ele>6.599999904632568359375</ele>
        <time>2025-12-25T13:41:58.000Z</time>
        <extensions>
          <ns3:TrackPointExtension>
            <ns3:hr>149</ns3:hr>
          </ns3:TrackPointExtension>
        </extensions>
      </trkpt>
      <trkpt lat="24.48784905485808849334716796875" lon="118.104151524603366851806640625">
        <ele>6.400000095367431640625</ele>
        <time>2025-12-25T13:41:59.000Z</time>
        <extensions>
          <ns3:TrackPointExtension>
            <ns3:hr>149</ns3:hr>
          </ns3:TrackPointExtension>
        </extensions>
      </trkpt>
      <trkpt lat="24.48786162771284580230712890625" lon="118.10417943634092807769775390625">
        <ele>6.19999980926513671875</ele>
        <time>2025-12-25T13:42:00.000Z</time>
        <extensions>
          <ns3:TrackPointExtension>
            <ns3:hr>149</ns3:hr>
          </ns3:TrackPointExtension>
        </extensions>
      </trkpt>
      <trkpt lat="24.48787487111985683441162109375" lon="118.10420709662139415740966796875">
        <ele>6</ele>
        <time>2025-12-25T13:42:01.000Z</time>
        <extensions>
          <ns3:TrackPointExtension>
            <ns3:hr>149</ns3:hr>
          </ns3:TrackPointExtension>
        </extensions>
      </trkpt>
      <trkpt lat="24.48788903653621673583984375" lon="118.10423475690186023712158203125">
        <ele>6</ele>
        <time>2025-12-25T13:42:02.000Z</time>
        <extensions>
          <ns3:TrackPointExtension>
            <ns3:hr>150</ns3:hr>
          </ns3:TrackPointExtension>
        </extensions>
      </trkpt>
      <trkpt lat="24.48790420778095722198486328125" lon="118.10426208190619945526123046875">
        <ele>6</ele>
        <time>2025-12-25T13:42:03.000Z</time>
        <extensions>
          <ns3:TrackPointExtension>
            <ns3:hr>150</ns3:hr>
          </ns3:TrackPointExtension>
        </extensions>
      </trkpt>
      <trkpt lat="24.48792046867311000823974609375" lon="118.104288987815380096435546875">
        <ele>6</ele>
        <time>2025-12-25T13:42:04.000Z</time>
        <extensions>
          <ns3:TrackPointExtension>
            <ns3:hr>150</ns3:hr>
          </ns3:TrackPointExtension>
        </extensions>
      </trkpt>
      <trkpt lat="24.487937651574611663818359375" lon="118.10431572608649730682373046875">
        <ele>6</ele>
        <time>2025-12-25T13:42:05.000Z</time>
        <extensions>
          <ns3:TrackPointExtension>
            <ns3:hr>150</ns3:hr>
          </ns3:TrackPointExtension>
        </extensions>
      </trkpt>
      <trkpt lat="24.48795567266643047332763671875" lon="118.104341961443424224853515625">
        <ele>6</ele>
        <time>2025-12-25T13:42:06.000Z</time>
        <extensions>
          <ns3:TrackPointExtension>
            <ns3:hr>150</ns3:hr>
          </ns3:TrackPointExtension>
        </extensions>
      </trkpt>
      <trkpt lat="24.48797444812953472137451171875" lon="118.10436777770519256591796875">
        <ele>6</ele>
        <time>2025-12-25T13:42:07.000Z</time>
        <extensions>
          <ns3:TrackPointExtension>
            <ns3:hr>150</ns3:hr>
          </ns3:TrackPointExtension>
        </extensions>
      </trkpt>
      <trkpt lat="24.48799389414489269256591796875" lon="118.10439300723373889923095703125">
        <ele>6</ele>
        <time>2025-12-25T13:42:08.000Z</time>
        <extensions>
          <ns3:TrackPointExtension>
            <ns3:hr>150</ns3:hr>
          </ns3:TrackPointExtension>
        </extensions>
      </trkpt>
      <trkpt lat="24.48801417835056781768798828125" lon="118.1044175662100315093994140625">
        <ele>6</ele>
        <time>2025-12-25T13:42:09.000Z</time>
        <extensions>
          <ns3:TrackPointExtension>
            <ns3:hr>150</ns3:hr>
          </ns3:TrackPointExtension>
        </extensions>
      </trkpt>
      <trkpt lat="24.48803496547043323516845703125" lon="118.10444145463407039642333984375">
        <ele>6</ele>
        <time>2025-12-25T13:42:10.000Z</time>
        <extensions>
          <ns3:TrackPointExtension>
            <ns3:hr>150</ns3:hr>
          </ns3:TrackPointExtension>
        </extensions>
      </trkpt>
      <trkpt lat="24.4880558364093303680419921875" lon="118.10446475632488727569580078125">
        <ele>6</ele>
        <time>2025-12-25T13:42:11.000Z</time>
        <extensions>
          <ns3:TrackPointExtension>
            <ns3:hr>150</ns3:hr>
          </ns3:TrackPointExtension>
        </extensions>
      </trkpt>
      <trkpt lat="24.48807335458695888519287109375" lon="118.10448403470218181610107421875">
        <ele>6</ele>
        <time>2025-12-25T13:42:12.000Z</time>
        <extensions>
          <ns3:TrackPointExtension>
            <ns3:hr>150</ns3:hr>
          </ns3:TrackPointExtension>
        </extensions>
      </trkpt>
      <trkpt lat="24.48809464462101459503173828125" lon="118.10450700111687183380126953125">
        <ele>6.19999980926513671875</ele>
        <time>2025-12-25T13:42:13.000Z</time>
        <extensions>
          <ns3:TrackPointExtension>
            <ns3:hr>150</ns3:hr>
          </ns3:TrackPointExtension>
        </extensions>
      </trkpt>
      <trkpt lat="24.4881161861121654510498046875" lon="118.104529716074466705322265625">
        <ele>6.400000095367431640625</ele>
        <time>2025-12-25T13:42:14.000Z</time>
        <extensions>
          <ns3:TrackPointExtension>
            <ns3:hr>150</ns3:hr>
          </ns3:TrackPointExtension>
        </extensions>
      </trkpt>
      <trkpt lat="24.488138146698474884033203125" lon="118.1045520119369029998779296875">
        <ele>6.599999904632568359375</ele>
        <time>2025-12-25T13:42:15.000Z</time>
        <extensions>
          <ns3:TrackPointExtension>
            <ns3:hr>150</ns3:hr>
          </ns3:TrackPointExtension>
        </extensions>
      </trkpt>
      <trkpt lat="24.48816052637994289398193359375" lon="118.1045734696090221405029296875">
        <ele>6.80000019073486328125</ele>
        <time>2025-12-25T13:42:16.000Z</time>
        <extensions>
          <ns3:TrackPointExtension>
            <ns3:hr>150</ns3:hr>
          </ns3:TrackPointExtension>
        </extensions>
      </trkpt>
      <trkpt lat="24.4881835766136646270751953125" lon="118.10459400527179241180419921875">
        <ele>6.80000019073486328125</ele>
        <time>2025-12-25T13:42:17.000Z</time>
        <extensions>
          <ns3:TrackPointExtension>
            <ns3:hr>150</ns3:hr>
          </ns3:TrackPointExtension>
        </extensions>
      </trkpt>
      <trkpt lat="24.48820712976157665252685546875" lon="118.1046140380203723907470703125">
        <ele>6.80000019073486328125</ele>
        <time>2025-12-25T13:42:18.000Z</time>
        <extensions>
          <ns3:TrackPointExtension>
            <ns3:hr>150</ns3:hr>
          </ns3:TrackPointExtension>
        </extensions>
      </trkpt>
      <trkpt lat="24.48823126964271068572998046875" lon="118.10463331639766693115234375">
        <ele>6.599999904632568359375</ele>
        <time>2025-12-25T13:42:19.000Z</time>
        <extensions>
          <ns3:TrackPointExtension>
            <ns3:hr>150</ns3:hr>
          </ns3:TrackPointExtension>
        </extensions>
      </trkpt>
      <trkpt lat="24.48825574479997158050537109375" lon="118.10465167276561260223388671875">
        <ele>6.400000095367431640625</ele>
        <time>2025-12-25T13:42:20.000Z</time>
        <extensions>
          <ns3:TrackPointExtension>
            <ns3:hr>150</ns3:hr>
          </ns3:TrackPointExtension>
        </extensions>
      </trkpt>
      <trkpt lat="24.48828072287142276763916015625" lon="118.1046690233051776885986328125">
        <ele>6.19999980926513671875</ele>
        <time>2025-12-25T13:42:21.000Z</time>
        <extensions>
          <ns3:TrackPointExtension>
            <ns3:hr>150</ns3:hr>
          </ns3:TrackPointExtension>
        </extensions>
      </trkpt>
      <trkpt lat="24.48830637149512767791748046875" lon="118.104685284197330474853515625">
        <ele>6</ele>
        <time>2025-12-25T13:42:22.000Z</time>
        <extensions>
          <ns3:TrackPointExtension>
            <ns3:hr>150</ns3:hr>
          </ns3:TrackPointExtension>
        </extensions>
      </trkpt>
      <trkpt lat="24.488332606852054595947265625" lon="118.10470045544207096099853515625">
        <ele>5.80000019073486328125</ele>
        <time>2025-12-25T13:42:23.000Z</time>
        <extensions>
          <ns3:TrackPointExtension>
            <ns3:hr>150</ns3:hr>
          </ns3:TrackPointExtension>
        </extensions>
      </trkpt>
      <trkpt lat="24.4883592613041400909423828125" lon="118.104714788496494293212890625">
        <ele>5.599999904632568359375</ele>
        <time>2025-12-25T13:42:24.000Z</time>
        <extensions>
          <ns3:TrackPointExtension>
            <ns3:hr>150</ns3:hr>
          </ns3:TrackPointExtension>
        </extensions>
      </trkpt>
      <trkpt lat="24.488386251032352447509765625" lon="118.10472853481769561767578125">
        <ele>5.400000095367431640625</ele>
        <time>2025-12-25T13:42:25.000Z</time>
        <extensions>
          <ns3:TrackPointExtension>
            <ns3:hr>150</ns3:hr>
          </ns3:TrackPointExtension>
        </extensions>
      </trkpt>
      <trkpt lat="24.48841332457959651947021484375" lon="118.1047417782247066497802734375">
        <ele>5.19999980926513671875</ele>
        <time>2025-12-25T13:42:26.000Z</time>
        <extensions>
          <ns3:TrackPointExtension>
            <ns3:hr>150</ns3:hr>
          </ns3:TrackPointExtension>
        </extensions>
      </trkpt>
      <trkpt lat="24.48844023048877716064453125" lon="118.104754351079463958740234375">
        <ele>5</ele>
        <time>2025-12-25T13:42:27.000Z</time>
        <extensions>
          <ns3:TrackPointExtension>
            <ns3:hr>150</ns3:hr>
          </ns3:TrackPointExtension>
        </extensions>
      </trkpt>
      <trkpt lat="24.4884672202169895172119140625" lon="118.10476583428680896759033203125">
        <ele>5</ele>
        <time>2025-12-25T13:42:28.000Z</time>
        <extensions>
          <ns3:TrackPointExtension>
            <ns3:hr>150</ns3:hr>
          </ns3:TrackPointExtension>
        </extensions>
      </trkpt>
      <trkpt lat="24.48849446140229701995849609375" lon="118.10477622784674167633056640625">
        <ele>5</ele>
        <time>2025-12-25T13:42:29.000Z</time>
        <extensions>
          <ns3:TrackPointExtension>
            <ns3:hr>151</ns3:hr>
          </ns3:TrackPointExtension>
        </extensions>
      </trkpt>
      <trkpt lat="24.48852195404469966888427734375" lon="118.10478544794023036956787109375">
        <ele>5</ele>
        <time>2025-12-25T13:42:30.000Z</time>
        <extensions>
          <ns3:TrackPointExtension>
            <ns3:hr>150</ns3:hr>
          </ns3:TrackPointExtension>
        </extensions>
      </trkpt>
      <trkpt lat="24.488549530506134033203125" lon="118.10479382984340190887451171875">
        <ele>5</ele>
        <time>2025-12-25T13:42:31.000Z</time>
        <extensions>
          <ns3:TrackPointExtension>
            <ns3:hr>150</ns3:hr>
          </ns3:TrackPointExtension>
        </extensions>
      </trkpt>
      <trkpt lat="24.48857710696756839752197265625" lon="118.10480137355625629425048828125">
        <ele>5</ele>
        <time>2025-12-25T13:42:32.000Z</time>
        <extensions>
          <ns3:TrackPointExtension>
            <ns3:hr>150</ns3:hr>
          </ns3:TrackPointExtension>
        </extensions>
      </trkpt>
      <trkpt lat="24.4886043481528759002685546875" lon="118.104808665812015533447265625">
        <ele>5</ele>
        <time>2025-12-25T13:42:33.000Z</time>
        <extensions>
          <ns3:TrackPointExtension>
            <ns3:hr>150</ns3:hr>
          </ns3:TrackPointExtension>
        </extensions>
      </trkpt>
      <trkpt lat="24.488631002604961395263671875" lon="118.104816041886806488037109375">
        <ele>5</ele>
        <time>2025-12-25T13:42:34.000Z</time>
        <extensions>
          <ns3:TrackPointExtension>
            <ns3:hr>150</ns3:hr>
          </ns3:TrackPointExtension>
        </extensions>
      </trkpt>
      <trkpt lat="24.4886576570570468902587890625" lon="118.104823417961597442626953125">
        <ele>5</ele>
        <time>2025-12-25T13:42:35.000Z</time>
        <extensions>
          <ns3:TrackPointExtension>
            <ns3:hr>150</ns3:hr>
          </ns3:TrackPointExtension>
        </extensions>
      </trkpt>
      <trkpt lat="24.488684646785259246826171875" lon="118.10483054257929325103759765625">
        <ele>5</ele>
        <time>2025-12-25T13:42:36.000Z</time>
        <extensions>
          <ns3:TrackPointExtension>
            <ns3:hr>150</ns3:hr>
          </ns3:TrackPointExtension>
        </extensions>
      </trkpt>
      <trkpt lat="24.48871205560863018035888671875" lon="118.10483724810183048248291015625">
        <ele>5</ele>
        <time>2025-12-25T13:42:37.000Z</time>
        <extensions>
          <ns3:TrackPointExtension>
            <ns3:hr>150</ns3:hr>
          </ns3:TrackPointExtension>
        </extensions>
      </trkpt>
      <trkpt lat="24.488739632070064544677734375" lon="118.10484311543405055999755859375">
        <ele>5</ele>
        <time>2025-12-25T13:42:38.000Z</time>
        <extensions>
          <ns3:TrackPointExtension>
            <ns3:hr>150</ns3:hr>
          </ns3:TrackPointExtension>
        </extensions>
      </trkpt>
      <trkpt lat="24.48876720853149890899658203125" lon="118.1048480607569217681884765625">
        <ele>4.80000019073486328125</ele>
        <time>2025-12-25T13:42:39.000Z</time>
        <extensions>
          <ns3:TrackPointExtension>
            <ns3:hr>150</ns3:hr>
          </ns3:TrackPointExtension>
        </extensions>
      </trkpt>
      <trkpt lat="24.48879470117390155792236328125" lon="118.1048520840704441070556640625">
        <ele>4.80000019073486328125</ele>
        <time>2025-12-25T13:42:40.000Z</time>
        <extensions>
          <ns3:TrackPointExtension>
            <ns3:hr>150</ns3:hr>
          </ns3:TrackPointExtension>
        </extensions>
      </trkpt>
      <trkpt lat="24.4888222776353359222412109375" lon="118.104854933917522430419921875">
        <ele>4.80000019073486328125</ele>
        <time>2025-12-25T13:42:41.000Z</time>
        <extensions>
          <ns3:TrackPointExtension>
            <ns3:hr>150</ns3:hr>
          </ns3:TrackPointExtension>
        </extensions>
      </trkpt>
      <trkpt lat="24.48885018937289714813232421875" lon="118.1048564426600933074951171875">
        <ele>4.80000019073486328125</ele>
        <time>2025-12-25T13:42:42.000Z</time>
        <extensions>
          <ns3:TrackPointExtension>
            <ns3:hr>150</ns3:hr>
          </ns3:TrackPointExtension>
        </extensions>
      </trkpt>
      <trkpt lat="24.48887835256755352020263671875" lon="118.10485686175525188446044921875">
        <ele>5</ele>
        <time>2025-12-25T13:42:43.000Z</time>
        <extensions>
          <ns3:TrackPointExtension>
            <ns3:hr>150</ns3:hr>
          </ns3:TrackPointExtension>
        </extensions>
      </trkpt>
      <trkpt lat="24.4889067672193050384521484375" lon="118.104856275022029876708984375">
        <ele>5</ele>
        <time>2025-12-25T13:42:44.000Z</time>
        <extensions>
          <ns3:TrackPointExtension>
            <ns3:hr>150</ns3:hr>
          </ns3:TrackPointExtension>
        </extensions>
      </trkpt>
      <trkpt lat="24.48893518187105655670166015625" lon="118.10485501773655414581298828125">
        <ele>5.19999980926513671875</ele>
        <time>2025-12-25T13:42:45.000Z</time>
        <extensions>
          <ns3:TrackPointExtension>
            <ns3:hr>150</ns3:hr>
          </ns3:TrackPointExtension>
        </extensions>
      </trkpt>
      <trkpt lat="24.48896334506571292877197265625" lon="118.1048534251749515533447265625">
        <ele>5.19999980926513671875</ele>
        <time>2025-12-25T13:42:46.000Z</time>
        <extensions>
          <ns3:TrackPointExtension>
            <ns3:hr>150</ns3:hr>
          </ns3:TrackPointExtension>
        </extensions>
      </trkpt>
      <trkpt lat="24.48899167589843273162841796875" lon="118.104851581156253814697265625">
        <ele>5.400000095367431640625</ele>
        <time>2025-12-25T13:42:47.000Z</time>
        <extensions>
          <ns3:TrackPointExtension>
            <ns3:hr>150</ns3:hr>
          </ns3:TrackPointExtension>
        </extensions>
      </trkpt>
      <trkpt lat="24.48902050964534282684326171875" lon="118.10484923422336578369140625">
        <ele>5.19999980926513671875</ele>
        <time>2025-12-25T13:42:48.000Z</time>
        <extensions>
          <ns3:TrackPointExtension>
            <ns3:hr>150</ns3:hr>
          </ns3:TrackPointExtension>
        </extensions>
      </trkpt>
      <trkpt lat="24.4890495948493480682373046875" lon="118.10484630055725574493408203125">
        <ele>5</ele>
        <time>2025-12-25T13:42:49.000Z</time>
        <extensions>
          <ns3:TrackPointExtension>
            <ns3:hr>150</ns3:hr>
          </ns3:TrackPointExtension>
        </extensions>
      </trkpt>
      <trkpt lat="24.48907859623432159423828125" lon="118.10484261251986026763916015625">
        <ele>4.80000019073486328125</ele>
        <time>2025-12-25T13:42:50.000Z</time>
        <extensions>
          <ns3:TrackPointExtension>
            <ns3:hr>150</ns3:hr>
          </ns3:TrackPointExtension>
        </extensions>
      </trkpt>
      <trkpt lat="24.48910717852413654327392578125" lon="118.1048380024731159210205078125">
        <ele>4.599999904632568359375</ele>
        <time>2025-12-25T13:42:51.000Z</time>
        <extensions>
          <ns3:TrackPointExtension>
            <ns3:hr>150</ns3:hr>
          </ns3:TrackPointExtension>
        </extensions>
      </trkpt>
      <trkpt lat="24.48913550935685634613037109375" lon="118.104832470417022705078125">
        <ele>4.599999904632568359375</ele>
        <time>2025-12-25T13:42:52.000Z</time>
        <extensions>
          <ns3:TrackPointExtension>
            <ns3:hr>150</ns3:hr>
          </ns3:TrackPointExtension>
        </extensions>
      </trkpt>
      <trkpt lat="24.48916350491344928741455078125" lon="118.10482618398964405059814453125">
        <ele>4.599999904632568359375</ele>
        <time>2025-12-25T13:42:53.000Z</time>
        <extensions>
          <ns3:TrackPointExtension>
            <ns3:hr>150</ns3:hr>
          </ns3:TrackPointExtension>
        </extensions>
      </trkpt>
      <trkpt lat="24.4891910813748836517333984375" lon="118.1048195622861385345458984375">
        <ele>4.599999904632568359375</ele>
        <time>2025-12-25T13:42:54.000Z</time>
        <extensions>
          <ns3:TrackPointExtension>
            <ns3:hr>150</ns3:hr>
          </ns3:TrackPointExtension>
        </extensions>
      </trkpt>
      <trkpt lat="24.48921807110309600830078125" lon="118.10481243766844272613525390625">
        <ele>4.599999904632568359375</ele>
        <time>2025-12-25T13:42:55.000Z</time>
        <extensions>
          <ns3:TrackPointExtension>
            <ns3:hr>150</ns3:hr>
          </ns3:TrackPointExtension>
        </extensions>
      </trkpt>
      <trkpt lat="24.4892442226409912109375" lon="118.1048048101365566253662109375">
        <ele>4.599999904632568359375</ele>
        <time>2025-12-25T13:42:56.000Z</time>
        <extensions>
          <ns3:TrackPointExtension>
            <ns3:hr>150</ns3:hr>
          </ns3:TrackPointExtension>
        </extensions>
      </trkpt>
      <trkpt lat="24.489269368350505828857421875" lon="118.104796595871448516845703125">
        <ele>4.599999904632568359375</ele>
        <time>2025-12-25T13:42:57.000Z</time>
        <extensions>
          <ns3:TrackPointExtension>
            <ns3:hr>150</ns3:hr>
          </ns3:TrackPointExtension>
        </extensions>
      </trkpt>
      <trkpt lat="24.4892933405935764312744140625" lon="118.10478796251118183135986328125">
        <ele>4.80000019073486328125</ele>
        <time>2025-12-25T13:42:58.000Z</time>
        <extensions>
          <ns3:TrackPointExtension>
            <ns3:hr>150</ns3:hr>
          </ns3:TrackPointExtension>
        </extensions>
      </trkpt>
      <trkpt lat="24.48931597173213958740234375" lon="118.1047793291509151458740234375">
        <ele>4.599999904632568359375</ele>
        <time>2025-12-25T13:42:59.000Z</time>
        <extensions>
          <ns3:TrackPointExtension>
            <ns3:hr>150</ns3:hr>
          </ns3:TrackPointExtension>
        </extensions>
      </trkpt>
      <trkpt lat="24.48933650739490985870361328125" lon="118.10477136634290218353271484375">
        <ele>4.400000095367431640625</ele>
        <time>2025-12-25T13:43:00.000Z</time>
        <extensions>
          <ns3:TrackPointExtension>
            <ns3:hr>150</ns3:hr>
          </ns3:TrackPointExtension>
        </extensions>
      </trkpt>
      <trkpt lat="24.48935427702963352203369140625" lon="118.1047652475535869598388671875">
        <ele>4.19999980926513671875</ele>
        <time>2025-12-25T13:43:01.000Z</time>
        <extensions>
          <ns3:TrackPointExtension>
            <ns3:hr>150</ns3:hr>
          </ns3:TrackPointExtension>
        </extensions>
      </trkpt>
      <trkpt lat="24.48936802335083484649658203125" lon="118.1047622300684452056884765625">
        <ele>4.19999980926513671875</ele>
        <time>2025-12-25T13:43:02.000Z</time>
        <extensions>
          <ns3:TrackPointExtension>
            <ns3:hr>150</ns3:hr>
          </ns3:TrackPointExtension>
        </extensions>
      </trkpt>
      <trkpt lat="24.48937724344432353973388671875" lon="118.10476164333522319793701171875">
        <ele>4.19999980926513671875</ele>
        <time>2025-12-25T13:43:03.000Z</time>
        <extensions>
          <ns3:TrackPointExtension>
            <ns3:hr>150</ns3:hr>
          </ns3:TrackPointExtension>
        </extensions>
      </trkpt>
      <trkpt lat="24.48938294313848018646240234375" lon="118.1047615595161914825439453125">
        <ele>4</ele>
        <time>2025-12-25T13:43:04.000Z</time>
        <extensions>
          <ns3:TrackPointExtension>
            <ns3:hr>148</ns3:hr>
          </ns3:TrackPointExtension>
        </extensions>
      </trkpt>
      <trkpt lat="24.48938763700425624847412109375" lon="118.104761056602001190185546875">
        <ele>4</ele>
        <time>2025-12-25T13:43:05.000Z</time>
        <extensions>
          <ns3:TrackPointExtension>
            <ns3:hr>148</ns3:hr>
          </ns3:TrackPointExtension>
        </extensions>
      </trkpt>
      <trkpt lat="24.4893930852413177490234375" lon="118.10476005077362060546875">
        <ele>4</ele>
        <time>2025-12-25T13:43:06.000Z</time>
        <extensions>
          <ns3:TrackPointExtension>
            <ns3:hr>148</ns3:hr>
          </ns3:TrackPointExtension>
        </extensions>
      </trkpt>
      <trkpt lat="24.48939937166869640350341796875" lon="118.1047588773071765899658203125">
        <ele>4</ele>
        <time>2025-12-25T13:43:07.000Z</time>
        <extensions>
          <ns3:TrackPointExtension>
            <ns3:hr>148</ns3:hr>
          </ns3:TrackPointExtension>
        </extensions>
      </trkpt>
      <trkpt lat="24.48940507136285305023193359375" lon="118.1047582067549228668212890625">
        <ele>3.7999999523162841796875</ele>
        <time>2025-12-25T13:43:08.000Z</time>
        <extensions>
          <ns3:TrackPointExtension>
            <ns3:hr>148</ns3:hr>
          </ns3:TrackPointExtension>
        </extensions>
      </trkpt>
      <trkpt lat="24.48940850794315338134765625" lon="118.10475803911685943603515625">
        <ele>3.7999999523162841796875</ele>
        <time>2025-12-25T13:43:09.000Z</time>
        <extensions>
          <ns3:TrackPointExtension>
            <ns3:hr>148</ns3:hr>
          </ns3:TrackPointExtension>
        </extensions>
      </trkpt>
      <trkpt lat="24.489410184323787689208984375" lon="118.1047582067549228668212890625">
        <ele>3.7999999523162841796875</ele>
        <time>2025-12-25T13:43:10.000Z</time>
        <extensions>
          <ns3:TrackPointExtension>
            <ns3:hr>148</ns3:hr>
          </ns3:TrackPointExtension>
        </extensions>
      </trkpt>
      <trkpt lat="24.48941093869507312774658203125" lon="118.10475845821201801300048828125">
        <ele>3.7999999523162841796875</ele>
        <time>2025-12-25T13:43:11.000Z</time>
        <extensions>
          <ns3:TrackPointExtension>
            <ns3:hr>142</ns3:hr>
          </ns3:TrackPointExtension>
        </extensions>
      </trkpt>
      <trkpt lat="24.48941144160926342010498046875" lon="118.10475845821201801300048828125">
        <ele>3.7999999523162841796875</ele>
        <time>2025-12-25T13:43:12.000Z</time>
        <extensions>
          <ns3:TrackPointExtension>
            <ns3:hr>142</ns3:hr>
          </ns3:TrackPointExtension>
        </extensions>
      </trkpt>
      <trkpt lat="24.48941227979958057403564453125" lon="118.1047582067549228668212890625">
        <ele>3.7999999523162841796875</ele>
        <time>2025-12-25T13:43:13.000Z</time>
        <extensions>
          <ns3:TrackPointExtension>
            <ns3:hr>142</ns3:hr>
          </ns3:TrackPointExtension>
        </extensions>
      </trkpt>
      <trkpt lat="24.4894140399992465972900390625" lon="118.1047575362026691436767578125">
        <ele>3.7999999523162841796875</ele>
        <time>2025-12-25T13:43:14.000Z</time>
        <extensions>
          <ns3:TrackPointExtension>
            <ns3:hr>142</ns3:hr>
          </ns3:TrackPointExtension>
        </extensions>
      </trkpt>
      <trkpt lat="24.4894167222082614898681640625" lon="118.10475644655525684356689453125">
        <ele>3.7999999523162841796875</ele>
        <time>2025-12-25T13:43:15.000Z</time>
        <extensions>
          <ns3:TrackPointExtension>
            <ns3:hr>142</ns3:hr>
          </ns3:TrackPointExtension>
        </extensions>
      </trkpt>
      <trkpt lat="24.4894199073314666748046875" lon="118.104755021631717681884765625">
        <ele>3.7999999523162841796875</ele>
        <time>2025-12-25T13:43:16.000Z</time>
        <extensions>
          <ns3:TrackPointExtension>
            <ns3:hr>142</ns3:hr>
          </ns3:TrackPointExtension>
        </extensions>
      </trkpt>
      <trkpt lat="24.4894225895404815673828125" lon="118.10475376434624195098876953125">
        <ele>3.7999999523162841796875</ele>
        <time>2025-12-25T13:43:17.000Z</time>
        <extensions>
          <ns3:TrackPointExtension>
            <ns3:hr>142</ns3:hr>
          </ns3:TrackPointExtension>
        </extensions>
      </trkpt>
      <trkpt lat="24.48942434974014759063720703125" lon="118.10475309379398822784423828125">
        <ele>3.7999999523162841796875</ele>
        <time>2025-12-25T13:43:18.000Z</time>
        <extensions>
          <ns3:TrackPointExtension>
            <ns3:hr>142</ns3:hr>
          </ns3:TrackPointExtension>
        </extensions>
      </trkpt>
      <trkpt lat="24.48942502029240131378173828125" lon="118.10475309379398822784423828125">
        <ele>3.7999999523162841796875</ele>
        <time>2025-12-25T13:43:19.000Z</time>
        <extensions>
          <ns3:TrackPointExtension>
            <ns3:hr>141</ns3:hr>
          </ns3:TrackPointExtension>
        </extensions>
      </trkpt>
      <trkpt lat="24.4894251041114330291748046875" lon="118.10475359670817852020263671875">
        <ele>3.7999999523162841796875</ele>
        <time>2025-12-25T13:43:20.000Z</time>
        <extensions>
          <ns3:TrackPointExtension>
            <ns3:hr>136</ns3:hr>
          </ns3:TrackPointExtension>
        </extensions>
      </trkpt>
      <trkpt lat="24.48942451737821102142333984375" lon="118.10475477017462253570556640625">
        <ele>3.599999904632568359375</ele>
        <time>2025-12-25T13:43:21.000Z</time>
        <extensions>
          <ns3:TrackPointExtension>
            <ns3:hr>136</ns3:hr>
          </ns3:TrackPointExtension>
        </extensions>
      </trkpt>
      <trkpt lat="24.48942351154983043670654296875" lon="118.10475644655525684356689453125">
        <ele>3.599999904632568359375</ele>
        <time>2025-12-25T13:43:22.000Z</time>
        <extensions>
          <ns3:TrackPointExtension>
            <ns3:hr>136</ns3:hr>
          </ns3:TrackPointExtension>
        </extensions>
      </trkpt>
      <trkpt lat="24.489422254264354705810546875" lon="118.10475845821201801300048828125">
        <ele>3.599999904632568359375</ele>
        <time>2025-12-25T13:43:23.000Z</time>
        <extensions>
          <ns3:TrackPointExtension>
            <ns3:hr>136</ns3:hr>
          </ns3:TrackPointExtension>
        </extensions>
      </trkpt>
      <trkpt lat="24.48942066170275211334228515625" lon="118.10476080514490604400634765625">
        <ele>3.599999904632568359375</ele>
        <time>2025-12-25T13:43:24.000Z</time>
        <extensions>
          <ns3:TrackPointExtension>
            <ns3:hr>136</ns3:hr>
          </ns3:TrackPointExtension>
        </extensions>
      </trkpt>
      <trkpt lat="24.4894187338650226593017578125" lon="118.10476340353488922119140625">
        <ele>3.599999904632568359375</ele>
        <time>2025-12-25T13:43:25.000Z</time>
        <extensions>
          <ns3:TrackPointExtension>
            <ns3:hr>126</ns3:hr>
          </ns3:TrackPointExtension>
        </extensions>
      </trkpt>
      <trkpt lat="24.48941613547503948211669921875" lon="118.104766421020030975341796875">
        <ele>3.599999904632568359375</ele>
        <time>2025-12-25T13:43:26.000Z</time>
        <extensions>
          <ns3:TrackPointExtension>
            <ns3:hr>126</ns3:hr>
          </ns3:TrackPointExtension>
        </extensions>
      </trkpt>
      <trkpt lat="24.48941261507570743560791015625" lon="118.1047699414193630218505859375">
        <ele>3.599999904632568359375</ele>
        <time>2025-12-25T13:43:27.000Z</time>
        <extensions>
          <ns3:TrackPointExtension>
            <ns3:hr>126</ns3:hr>
          </ns3:TrackPointExtension>
        </extensions>
      </trkpt>
      <trkpt lat="24.48940775357186794281005859375" lon="118.10477413237094879150390625">
        <ele>3.599999904632568359375</ele>
        <time>2025-12-25T13:43:28.000Z</time>
        <extensions>
          <ns3:TrackPointExtension>
            <ns3:hr>126</ns3:hr>
          </ns3:TrackPointExtension>
        </extensions>
      </trkpt>
      <trkpt lat="24.48940104804933071136474609375" lon="118.10477891005575656890869140625">
        <ele>3.599999904632568359375</ele>
        <time>2025-12-25T13:43:29.000Z</time>
        <extensions>
          <ns3:TrackPointExtension>
            <ns3:hr>126</ns3:hr>
          </ns3:TrackPointExtension>
        </extensions>
      </trkpt>
      <trkpt lat="24.48939266614615917205810546875" lon="118.10478410683572292327880859375">
        <ele>3.599999904632568359375</ele>
        <time>2025-12-25T13:43:30.000Z</time>
        <extensions>
          <ns3:TrackPointExtension>
            <ns3:hr>126</ns3:hr>
          </ns3:TrackPointExtension>
        </extensions>
      </trkpt>
      <trkpt lat="24.4893838651478290557861328125" lon="118.104789219796657562255859375">
        <ele>3.7999999523162841796875</ele>
        <time>2025-12-25T13:43:31.000Z</time>
        <extensions>
          <ns3:TrackPointExtension>
            <ns3:hr>126</ns3:hr>
          </ns3:TrackPointExtension>
        </extensions>
      </trkpt>
      <trkpt lat="24.489375315606594085693359375" lon="118.10479416511952877044677734375">
        <ele>3.7999999523162841796875</ele>
        <time>2025-12-25T13:43:32.000Z</time>
        <extensions>
          <ns3:TrackPointExtension>
            <ns3:hr>126</ns3:hr>
          </ns3:TrackPointExtension>
        </extensions>
      </trkpt>
      <trkpt lat="24.4893667660653591156005859375" lon="118.1047989428043365478515625">
        <ele>3.7999999523162841796875</ele>
        <time>2025-12-25T13:43:33.000Z</time>
        <extensions>
          <ns3:TrackPointExtension>
            <ns3:hr>123</ns3:hr>
          </ns3:TrackPointExtension>
        </extensions>
      </trkpt>
      <trkpt lat="24.4893580488860607147216796875" lon="118.10480372048914432525634765625">
        <ele>4</ele>
        <time>2025-12-25T13:43:34.000Z</time>
        <extensions>
          <ns3:TrackPointExtension>
            <ns3:hr>123</ns3:hr>
          </ns3:TrackPointExtension>
        </extensions>
      </trkpt>
      <trkpt lat="24.48934958316385746002197265625" lon="118.10480824671685695648193359375">
        <ele>4</ele>
        <time>2025-12-25T13:43:35.000Z</time>
        <extensions>
          <ns3:TrackPointExtension>
            <ns3:hr>123</ns3:hr>
          </ns3:TrackPointExtension>
        </extensions>
      </trkpt>
      <trkpt lat="24.48934153653681278228759765625" lon="118.10481260530650615692138671875">
        <ele>4</ele>
        <time>2025-12-25T13:43:36.000Z</time>
        <extensions>
          <ns3:TrackPointExtension>
            <ns3:hr>123</ns3:hr>
          </ns3:TrackPointExtension>
        </extensions>
      </trkpt>
      <trkpt lat="24.48933340609073638916015625" lon="118.10481704771518707275390625">
        <ele>4</ele>
        <time>2025-12-25T13:43:37.000Z</time>
        <extensions>
          <ns3:TrackPointExtension>
            <ns3:hr>122</ns3:hr>
          </ns3:TrackPointExtension>
        </extensions>
      </trkpt>
      <trkpt lat="24.48932494036853313446044921875" lon="118.1048215739428997039794921875">
        <ele>4.19999980926513671875</ele>
        <time>2025-12-25T13:43:38.000Z</time>
        <extensions>
          <ns3:TrackPointExtension>
            <ns3:hr>122</ns3:hr>
          </ns3:TrackPointExtension>
        </extensions>
      </trkpt>
      <trkpt lat="24.48931622318923473358154296875" lon="118.1048262678086757659912109375">
        <ele>4.19999980926513671875</ele>
        <time>2025-12-25T13:43:39.000Z</time>
        <extensions>
          <ns3:TrackPointExtension>
            <ns3:hr>122</ns3:hr>
          </ns3:TrackPointExtension>
        </extensions>
      </trkpt>
      <trkpt lat="24.489307589828968048095703125" lon="118.1048309616744518280029296875">
        <ele>4</ele>
        <time>2025-12-25T13:43:40.000Z</time>
        <extensions>
          <ns3:TrackPointExtension>
            <ns3:hr>118</ns3:hr>
          </ns3:TrackPointExtension>
        </extensions>
      </trkpt>
      <trkpt lat="24.489298872649669647216796875" lon="118.10483557172119617462158203125">
        <ele>4</ele>
        <time>2025-12-25T13:43:41.000Z</time>
        <extensions>
          <ns3:TrackPointExtension>
            <ns3:hr>118</ns3:hr>
          </ns3:TrackPointExtension>
        </extensions>
      </trkpt>
      <trkpt lat="24.4892899878323078155517578125" lon="118.1048403494060039520263671875">
        <ele>4</ele>
        <time>2025-12-25T13:43:42.000Z</time>
        <extensions>
          <ns3:TrackPointExtension>
            <ns3:hr>118</ns3:hr>
          </ns3:TrackPointExtension>
        </extensions>
      </trkpt>
      <trkpt lat="24.48928110301494598388671875" lon="118.10484512709081172943115234375">
        <ele>4</ele>
        <time>2025-12-25T13:43:43.000Z</time>
        <extensions>
          <ns3:TrackPointExtension>
            <ns3:hr>118</ns3:hr>
          </ns3:TrackPointExtension>
        </extensions>
      </trkpt>
      <trkpt lat="24.48927230201661586761474609375" lon="118.10484982095658779144287109375">
        <ele>4</ele>
        <time>2025-12-25T13:43:44.000Z</time>
        <extensions>
          <ns3:TrackPointExtension>
            <ns3:hr>118</ns3:hr>
          </ns3:TrackPointExtension>
        </extensions>
      </trkpt>
      <trkpt lat="24.4892635010182857513427734375" lon="118.10485451482236385345458984375">
        <ele>3.7999999523162841796875</ele>
        <time>2025-12-25T13:43:45.000Z</time>
        <extensions>
          <ns3:TrackPointExtension>
            <ns3:hr>118</ns3:hr>
          </ns3:TrackPointExtension>
        </extensions>
      </trkpt>
      <trkpt lat="24.489254616200923919677734375" lon="118.10485920868813991546630859375">
        <ele>3.7999999523162841796875</ele>
        <time>2025-12-25T13:43:46.000Z</time>
        <extensions>
          <ns3:TrackPointExtension>
            <ns3:hr>114</ns3:hr>
          </ns3:TrackPointExtension>
        </extensions>
      </trkpt>
      <trkpt lat="24.4892457313835620880126953125" lon="118.10486390255391597747802734375">
        <ele>3.7999999523162841796875</ele>
        <time>2025-12-25T13:43:47.000Z</time>
        <extensions>
          <ns3:TrackPointExtension>
            <ns3:hr>114</ns3:hr>
          </ns3:TrackPointExtension>
        </extensions>
      </trkpt>
      <trkpt lat="24.48923684656620025634765625" lon="118.1048686802387237548828125">
        <ele>3.7999999523162841796875</ele>
        <time>2025-12-25T13:43:48.000Z</time>
        <extensions>
          <ns3:TrackPointExtension>
            <ns3:hr>114</ns3:hr>
          </ns3:TrackPointExtension>
        </extensions>
      </trkpt>
      <trkpt lat="24.48922754265367984771728515625" lon="118.10487362556159496307373046875">
        <ele>3.7999999523162841796875</ele>
        <time>2025-12-25T13:43:49.000Z</time>
        <extensions>
          <ns3:TrackPointExtension>
            <ns3:hr>114</ns3:hr>
          </ns3:TrackPointExtension>
        </extensions>
      </trkpt>
      <trkpt lat="24.4892179034650325775146484375" lon="118.10487873852252960205078125">
        <ele>3.7999999523162841796875</ele>
        <time>2025-12-25T13:43:50.000Z</time>
        <extensions>
          <ns3:TrackPointExtension>
            <ns3:hr>114</ns3:hr>
          </ns3:TrackPointExtension>
        </extensions>
      </trkpt>
      <trkpt lat="24.489208348095417022705078125" lon="118.10488385148346424102783203125">
        <ele>3.599999904632568359375</ele>
        <time>2025-12-25T13:43:51.000Z</time>
        <extensions>
          <ns3:TrackPointExtension>
            <ns3:hr>114</ns3:hr>
          </ns3:TrackPointExtension>
        </extensions>
      </trkpt>
      <trkpt lat="24.48919904418289661407470703125" lon="118.10488879680633544921875">
        <ele>3.599999904632568359375</ele>
        <time>2025-12-25T13:43:52.000Z</time>
        <extensions>
          <ns3:TrackPointExtension>
            <ns3:hr>114</ns3:hr>
          </ns3:TrackPointExtension>
        </extensions>
      </trkpt>
      <trkpt lat="24.4891900755465030670166015625" lon="118.10489357449114322662353515625">
        <ele>3.599999904632568359375</ele>
        <time>2025-12-25T13:43:53.000Z</time>
        <extensions>
          <ns3:TrackPointExtension>
            <ns3:hr>114</ns3:hr>
          </ns3:TrackPointExtension>
        </extensions>
      </trkpt>
      <trkpt lat="24.4891811907291412353515625" lon="118.10489826835691928863525390625">
        <ele>3.599999904632568359375</ele>
        <time>2025-12-25T13:43:54.000Z</time>
        <extensions>
          <ns3:TrackPointExtension>
            <ns3:hr>114</ns3:hr>
          </ns3:TrackPointExtension>
        </extensions>
      </trkpt>
      <trkpt lat="24.48917247354984283447265625" lon="118.10490287840366363525390625">
        <ele>3.599999904632568359375</ele>
        <time>2025-12-25T13:43:55.000Z</time>
        <extensions>
          <ns3:TrackPointExtension>
            <ns3:hr>114</ns3:hr>
          </ns3:TrackPointExtension>
        </extensions>
      </trkpt>
      <trkpt lat="24.48916375637054443359375" lon="118.104907572269439697265625">
        <ele>3.400000095367431640625</ele>
        <time>2025-12-25T13:43:56.000Z</time>
        <extensions>
          <ns3:TrackPointExtension>
            <ns3:hr>114</ns3:hr>
          </ns3:TrackPointExtension>
        </extensions>
      </trkpt>
      <trkpt lat="24.48915478773415088653564453125" lon="118.10491226613521575927734375">
        <ele>3.400000095367431640625</ele>
        <time>2025-12-25T13:43:57.000Z</time>
        <extensions>
          <ns3:TrackPointExtension>
            <ns3:hr>114</ns3:hr>
          </ns3:TrackPointExtension>
        </extensions>
      </trkpt>
      <trkpt lat="24.4891458190977573394775390625" lon="118.10491704382002353668212890625">
        <ele>3.400000095367431640625</ele>
        <time>2025-12-25T13:43:58.000Z</time>
        <extensions>
          <ns3:TrackPointExtension>
            <ns3:hr>114</ns3:hr>
          </ns3:TrackPointExtension>
        </extensions>
      </trkpt>
    </trkseg>
  </trk>
</gpx>
