<gpx xmlns:ns3="http://www.garmin.com/xmlschemas/TrackPointExtension/v1" xmlns="http://www.topografix.com/GPX/1/1" xmlns:xsi="http://www.w3.org/2001/XMLSchema-instance" xmlns:ns2="http://www.garmin.com/xmlschemas/GpxExtensions/v3" creator="Garmin Connect" version="1.1" xsi:schemaLocation="http://www.topografix.com/GPX/1/1 http://www.topografix.com/GPX/11.xsd">
  <extensions>
<distance>628.5</distance>
<average_hr>124.0</average_hr>
<average_speed>2.524796030291146</average_speed>
<start_time>2026-05-07T13:18:49+00:00</start_time>
<end_time>2026-05-07T13:22:57.931000+00:00</end_time>
<moving_time>247.0</moving_time>
<elapsed_time>248.931</elapsed_time>
</extensions>
<metadata>
    <link href="connect.garmin.com">
      <text>Garmin Connect</text>
    </link>
    <time>2026-05-07T13:18:49.000Z</time>
  </metadata>
  <trk>
    <name>厦门市 跑步</name>
    <type>running</type>
    <trkseg>
      <trkpt lat="24.48845607228577136993408203125" lon="118.1024776585400104522705078125">
        <ele>10.80000019073486328125</ele>
        <time>2026-05-07T13:18:51.000Z</time>
        <extensions>
          <ns3:TrackPointExtension>
            <ns3:hr>127</ns3:hr>
          </ns3:TrackPointExtension>
        </extensions>
      </trkpt>
      <trkpt lat="24.48844693601131439208984375" lon="118.10248176567256450653076171875">
        <ele>10.80000019073486328125</ele>
        <time>2026-05-07T13:18:52.000Z</time>
        <extensions>
          <ns3:TrackPointExtension>
            <ns3:hr>127</ns3:hr>
          </ns3:TrackPointExtension>
        </extensions>
      </trkpt>
      <trkpt lat="24.4884333573281764984130859375" lon="118.1024877168238162994384765625">
        <ele>10.80000019073486328125</ele>
        <time>2026-05-07T13:18:53.000Z</time>
        <extensions>
          <ns3:TrackPointExtension>
            <ns3:hr>123</ns3:hr>
          </ns3:TrackPointExtension>
        </extensions>
      </trkpt>
      <trkpt lat="24.48841751553118228912353515625" lon="118.10249559581279754638671875">
        <ele>10.80000019073486328125</ele>
        <time>2026-05-07T13:18:54.000Z</time>
        <extensions>
          <ns3:TrackPointExtension>
            <ns3:hr>123</ns3:hr>
          </ns3:TrackPointExtension>
        </extensions>
      </trkpt>
      <trkpt lat="24.48840091936290264129638671875" lon="118.10250456444919109344482421875">
        <ele>10.80000019073486328125</ele>
        <time>2026-05-07T13:18:55.000Z</time>
        <extensions>
          <ns3:TrackPointExtension>
            <ns3:hr>123</ns3:hr>
          </ns3:TrackPointExtension>
        </extensions>
      </trkpt>
      <trkpt lat="24.48838398791849613189697265625" lon="118.10251395218074321746826171875">
        <ele>10.80000019073486328125</ele>
        <time>2026-05-07T13:18:56.000Z</time>
        <extensions>
          <ns3:TrackPointExtension>
            <ns3:hr>123</ns3:hr>
          </ns3:TrackPointExtension>
        </extensions>
      </trkpt>
      <trkpt lat="24.48836621828377246856689453125" lon="118.10252451337873935699462890625">
        <ele>10.80000019073486328125</ele>
        <time>2026-05-07T13:18:57.000Z</time>
        <extensions>
          <ns3:TrackPointExtension>
            <ns3:hr>123</ns3:hr>
          </ns3:TrackPointExtension>
        </extensions>
      </trkpt>
      <trkpt lat="24.4883470237255096435546875" lon="118.10253608040511608123779296875">
        <ele>10.6000003814697265625</ele>
        <time>2026-05-07T13:18:58.000Z</time>
        <extensions>
          <ns3:TrackPointExtension>
            <ns3:hr>123</ns3:hr>
          </ns3:TrackPointExtension>
        </extensions>
      </trkpt>
      <trkpt lat="24.4883274100720882415771484375" lon="118.10254882089793682098388671875">
        <ele>10.6000003814697265625</ele>
        <time>2026-05-07T13:18:59.000Z</time>
        <extensions>
          <ns3:TrackPointExtension>
            <ns3:hr>123</ns3:hr>
          </ns3:TrackPointExtension>
        </extensions>
      </trkpt>
      <trkpt lat="24.48830804787576198577880859375" lon="118.10256265103816986083984375">
        <ele>10.3999996185302734375</ele>
        <time>2026-05-07T13:19:00.000Z</time>
        <extensions>
          <ns3:TrackPointExtension>
            <ns3:hr>123</ns3:hr>
          </ns3:TrackPointExtension>
        </extensions>
      </trkpt>
      <trkpt lat="24.48828860186040401458740234375" lon="118.10257731936872005462646484375">
        <ele>10.3999996185302734375</ele>
        <time>2026-05-07T13:19:01.000Z</time>
        <extensions>
          <ns3:TrackPointExtension>
            <ns3:hr>123</ns3:hr>
          </ns3:TrackPointExtension>
        </extensions>
      </trkpt>
      <trkpt lat="24.48826856911182403564453125" lon="118.10259349644184112548828125">
        <ele>10.19999980926513671875</ele>
        <time>2026-05-07T13:19:02.000Z</time>
        <extensions>
          <ns3:TrackPointExtension>
            <ns3:hr>123</ns3:hr>
          </ns3:TrackPointExtension>
        </extensions>
      </trkpt>
      <trkpt lat="24.488248117268085479736328125" lon="118.10261084698140621185302734375">
        <ele>10</ele>
        <time>2026-05-07T13:19:03.000Z</time>
        <extensions>
          <ns3:TrackPointExtension>
            <ns3:hr>123</ns3:hr>
          </ns3:TrackPointExtension>
        </extensions>
      </trkpt>
      <trkpt lat="24.48822741396725177764892578125" lon="118.10262928716838359832763671875">
        <ele>9.80000019073486328125</ele>
        <time>2026-05-07T13:19:04.000Z</time>
        <extensions>
          <ns3:TrackPointExtension>
            <ns3:hr>123</ns3:hr>
          </ns3:TrackPointExtension>
        </extensions>
      </trkpt>
      <trkpt lat="24.48820578865706920623779296875" lon="118.10265040956437587738037109375">
        <ele>9.6000003814697265625</ele>
        <time>2026-05-07T13:19:05.000Z</time>
        <extensions>
          <ns3:TrackPointExtension>
            <ns3:hr>123</ns3:hr>
          </ns3:TrackPointExtension>
        </extensions>
      </trkpt>
      <trkpt lat="24.4881832413375377655029296875" lon="118.10267438180744647979736328125">
        <ele>9.19999980926513671875</ele>
        <time>2026-05-07T13:19:06.000Z</time>
        <extensions>
          <ns3:TrackPointExtension>
            <ns3:hr>123</ns3:hr>
          </ns3:TrackPointExtension>
        </extensions>
      </trkpt>
      <trkpt lat="24.48816052637994289398193359375" lon="118.1027002818882465362548828125">
        <ele>8.80000019073486328125</ele>
        <time>2026-05-07T13:19:07.000Z</time>
        <extensions>
          <ns3:TrackPointExtension>
            <ns3:hr>123</ns3:hr>
          </ns3:TrackPointExtension>
        </extensions>
      </trkpt>
      <trkpt lat="24.4881378114223480224609375" lon="118.102727271616458892822265625">
        <ele>8.3999996185302734375</ele>
        <time>2026-05-07T13:19:08.000Z</time>
        <extensions>
          <ns3:TrackPointExtension>
            <ns3:hr>123</ns3:hr>
          </ns3:TrackPointExtension>
        </extensions>
      </trkpt>
      <trkpt lat="24.4881151802837848663330078125" lon="118.10275518335402011871337890625">
        <ele>7.80000019073486328125</ele>
        <time>2026-05-07T13:19:09.000Z</time>
        <extensions>
          <ns3:TrackPointExtension>
            <ns3:hr>126</ns3:hr>
          </ns3:TrackPointExtension>
        </extensions>
      </trkpt>
      <trkpt lat="24.488093219697475433349609375" lon="118.10278401710093021392822265625">
        <ele>7.400000095367431640625</ele>
        <time>2026-05-07T13:19:10.000Z</time>
        <extensions>
          <ns3:TrackPointExtension>
            <ns3:hr>126</ns3:hr>
          </ns3:TrackPointExtension>
        </extensions>
      </trkpt>
      <trkpt lat="24.48807251639664173126220703125" lon="118.10281385667622089385986328125">
        <ele>7.400000095367431640625</ele>
        <time>2026-05-07T13:19:11.000Z</time>
        <extensions>
          <ns3:TrackPointExtension>
            <ns3:hr>126</ns3:hr>
          </ns3:TrackPointExtension>
        </extensions>
      </trkpt>
      <trkpt lat="24.488052986562252044677734375" lon="118.102844618260860443115234375">
        <ele>7.19999980926513671875</ele>
        <time>2026-05-07T13:19:12.000Z</time>
        <extensions>
          <ns3:TrackPointExtension>
            <ns3:hr>126</ns3:hr>
          </ns3:TrackPointExtension>
        </extensions>
      </trkpt>
      <trkpt lat="24.4880340434610843658447265625" lon="118.10287588275969028472900390625">
        <ele>7</ele>
        <time>2026-05-07T13:19:13.000Z</time>
        <extensions>
          <ns3:TrackPointExtension>
            <ns3:hr>126</ns3:hr>
          </ns3:TrackPointExtension>
        </extensions>
      </trkpt>
      <trkpt lat="24.488015435636043548583984375" lon="118.10290739871561527252197265625">
        <ele>7</ele>
        <time>2026-05-07T13:19:14.000Z</time>
        <extensions>
          <ns3:TrackPointExtension>
            <ns3:hr>126</ns3:hr>
          </ns3:TrackPointExtension>
        </extensions>
      </trkpt>
      <trkpt lat="24.487996995449066162109375" lon="118.10293874703347682952880859375">
        <ele>6.80000019073486328125</ele>
        <time>2026-05-07T13:19:15.000Z</time>
        <extensions>
          <ns3:TrackPointExtension>
            <ns3:hr>126</ns3:hr>
          </ns3:TrackPointExtension>
        </extensions>
      </trkpt>
      <trkpt lat="24.4879790581762790679931640625" lon="118.1029701791703701019287109375">
        <ele>7</ele>
        <time>2026-05-07T13:19:16.000Z</time>
        <extensions>
          <ns3:TrackPointExtension>
            <ns3:hr>126</ns3:hr>
          </ns3:TrackPointExtension>
        </extensions>
      </trkpt>
      <trkpt lat="24.48796187527477741241455078125" lon="118.1030018627643585205078125">
        <ele>7.19999980926513671875</ele>
        <time>2026-05-07T13:19:17.000Z</time>
        <extensions>
          <ns3:TrackPointExtension>
            <ns3:hr>127</ns3:hr>
          </ns3:TrackPointExtension>
        </extensions>
      </trkpt>
      <trkpt lat="24.48794544674456119537353515625" lon="118.10303379781544208526611328125">
        <ele>7.400000095367431640625</ele>
        <time>2026-05-07T13:19:18.000Z</time>
        <extensions>
          <ns3:TrackPointExtension>
            <ns3:hr>130</ns3:hr>
          </ns3:TrackPointExtension>
        </extensions>
      </trkpt>
      <trkpt lat="24.48793002404272556304931640625" lon="118.1030657328665256500244140625">
        <ele>7.80000019073486328125</ele>
        <time>2026-05-07T13:19:19.000Z</time>
        <extensions>
          <ns3:TrackPointExtension>
            <ns3:hr>130</ns3:hr>
          </ns3:TrackPointExtension>
        </extensions>
      </trkpt>
      <trkpt lat="24.48791560716927051544189453125" lon="118.10309775173664093017578125">
        <ele>8</ele>
        <time>2026-05-07T13:19:20.000Z</time>
        <extensions>
          <ns3:TrackPointExtension>
            <ns3:hr>130</ns3:hr>
          </ns3:TrackPointExtension>
        </extensions>
      </trkpt>
      <trkpt lat="24.48790236376225948333740234375" lon="118.10312985442578792572021484375">
        <ele>8.3999996185302734375</ele>
        <time>2026-05-07T13:19:21.000Z</time>
        <extensions>
          <ns3:TrackPointExtension>
            <ns3:hr>130</ns3:hr>
          </ns3:TrackPointExtension>
        </extensions>
      </trkpt>
      <trkpt lat="24.48789029382169246673583984375" lon="118.10316220857203006744384765625">
        <ele>9</ele>
        <time>2026-05-07T13:19:22.000Z</time>
        <extensions>
          <ns3:TrackPointExtension>
            <ns3:hr>130</ns3:hr>
          </ns3:TrackPointExtension>
        </extensions>
      </trkpt>
      <trkpt lat="24.487879313528537750244140625" lon="118.10319456271827220916748046875">
        <ele>9.6000003814697265625</ele>
        <time>2026-05-07T13:19:23.000Z</time>
        <extensions>
          <ns3:TrackPointExtension>
            <ns3:hr>130</ns3:hr>
          </ns3:TrackPointExtension>
        </extensions>
      </trkpt>
      <trkpt lat="24.48786917142570018768310546875" lon="118.10322708450257778167724609375">
        <ele>10.19999980926513671875</ele>
        <time>2026-05-07T13:19:24.000Z</time>
        <extensions>
          <ns3:TrackPointExtension>
            <ns3:hr>135</ns3:hr>
          </ns3:TrackPointExtension>
        </extensions>
      </trkpt>
      <trkpt lat="24.487859867513179779052734375" lon="118.1032595224678516387939453125">
        <ele>10.6000003814697265625</ele>
        <time>2026-05-07T13:19:25.000Z</time>
        <extensions>
          <ns3:TrackPointExtension>
            <ns3:hr>135</ns3:hr>
          </ns3:TrackPointExtension>
        </extensions>
      </trkpt>
      <trkpt lat="24.48785148561000823974609375" lon="118.1032920442521572113037109375">
        <ele>11.19999980926513671875</ele>
        <time>2026-05-07T13:19:26.000Z</time>
        <extensions>
          <ns3:TrackPointExtension>
            <ns3:hr>135</ns3:hr>
          </ns3:TrackPointExtension>
        </extensions>
      </trkpt>
      <trkpt lat="24.48784385807812213897705078125" lon="118.10332498513162136077880859375">
        <ele>11.80000019073486328125</ele>
        <time>2026-05-07T13:19:27.000Z</time>
        <extensions>
          <ns3:TrackPointExtension>
            <ns3:hr>135</ns3:hr>
          </ns3:TrackPointExtension>
        </extensions>
      </trkpt>
      <trkpt lat="24.48783681727945804595947265625" lon="118.10335817746818065643310546875">
        <ele>12.19999980926513671875</ele>
        <time>2026-05-07T13:19:28.000Z</time>
        <extensions>
          <ns3:TrackPointExtension>
            <ns3:hr>135</ns3:hr>
          </ns3:TrackPointExtension>
        </extensions>
      </trkpt>
      <trkpt lat="24.48783027939498424530029296875" lon="118.103391788899898529052734375">
        <ele>12.6000003814697265625</ele>
        <time>2026-05-07T13:19:29.000Z</time>
        <extensions>
          <ns3:TrackPointExtension>
            <ns3:hr>135</ns3:hr>
          </ns3:TrackPointExtension>
        </extensions>
      </trkpt>
      <trkpt lat="24.487824328243732452392578125" lon="118.10342556796967983245849609375">
        <ele>12.3999996185302734375</ele>
        <time>2026-05-07T13:19:30.000Z</time>
        <extensions>
          <ns3:TrackPointExtension>
            <ns3:hr>135</ns3:hr>
          </ns3:TrackPointExtension>
        </extensions>
      </trkpt>
      <trkpt lat="24.4878191314637660980224609375" lon="118.10345943085849285125732421875">
        <ele>12.19999980926513671875</ele>
        <time>2026-05-07T13:19:31.000Z</time>
        <extensions>
          <ns3:TrackPointExtension>
            <ns3:hr>135</ns3:hr>
          </ns3:TrackPointExtension>
        </extensions>
      </trkpt>
      <trkpt lat="24.487814940512180328369140625" lon="118.10349346138536930084228515625">
        <ele>12</ele>
        <time>2026-05-07T13:19:32.000Z</time>
        <extensions>
          <ns3:TrackPointExtension>
            <ns3:hr>136</ns3:hr>
          </ns3:TrackPointExtension>
        </extensions>
      </trkpt>
      <trkpt lat="24.4878117553889751434326171875" lon="118.1035275757312774658203125">
        <ele>12</ele>
        <time>2026-05-07T13:19:33.000Z</time>
        <extensions>
          <ns3:TrackPointExtension>
            <ns3:hr>140</ns3:hr>
          </ns3:TrackPointExtension>
        </extensions>
      </trkpt>
      <trkpt lat="24.487809240818023681640625" lon="118.10356177389621734619140625">
        <ele>11.80000019073486328125</ele>
        <time>2026-05-07T13:19:34.000Z</time>
        <extensions>
          <ns3:TrackPointExtension>
            <ns3:hr>140</ns3:hr>
          </ns3:TrackPointExtension>
        </extensions>
      </trkpt>
      <trkpt lat="24.48780764825642108917236328125" lon="118.1035959720611572265625">
        <ele>11.6000003814697265625</ele>
        <time>2026-05-07T13:19:35.000Z</time>
        <extensions>
          <ns3:TrackPointExtension>
            <ns3:hr>140</ns3:hr>
          </ns3:TrackPointExtension>
        </extensions>
      </trkpt>
      <trkpt lat="24.48780697770416736602783203125" lon="118.10363017022609710693359375">
        <ele>11.6000003814697265625</ele>
        <time>2026-05-07T13:19:36.000Z</time>
        <extensions>
          <ns3:TrackPointExtension>
            <ns3:hr>140</ns3:hr>
          </ns3:TrackPointExtension>
        </extensions>
      </trkpt>
      <trkpt lat="24.48780714534223079681396484375" lon="118.10366428457200527191162109375">
        <ele>11.3999996185302734375</ele>
        <time>2026-05-07T13:19:37.000Z</time>
        <extensions>
          <ns3:TrackPointExtension>
            <ns3:hr>140</ns3:hr>
          </ns3:TrackPointExtension>
        </extensions>
      </trkpt>
      <trkpt lat="24.487808234989643096923828125" lon="118.10369831509888172149658203125">
        <ele>10.80000019073486328125</ele>
        <time>2026-05-07T13:19:38.000Z</time>
        <extensions>
          <ns3:TrackPointExtension>
            <ns3:hr>140</ns3:hr>
          </ns3:TrackPointExtension>
        </extensions>
      </trkpt>
      <trkpt lat="24.487810246646404266357421875" lon="118.10373217798769474029541015625">
        <ele>10.3999996185302734375</ele>
        <time>2026-05-07T13:19:39.000Z</time>
        <extensions>
          <ns3:TrackPointExtension>
            <ns3:hr>140</ns3:hr>
          </ns3:TrackPointExtension>
        </extensions>
      </trkpt>
      <trkpt lat="24.4878130964934825897216796875" lon="118.103765957057476043701171875">
        <ele>10</ele>
        <time>2026-05-07T13:19:40.000Z</time>
        <extensions>
          <ns3:TrackPointExtension>
            <ns3:hr>140</ns3:hr>
          </ns3:TrackPointExtension>
        </extensions>
      </trkpt>
      <trkpt lat="24.48781670071184635162353515625" lon="118.1037998199462890625">
        <ele>9.3999996185302734375</ele>
        <time>2026-05-07T13:19:41.000Z</time>
        <extensions>
          <ns3:TrackPointExtension>
            <ns3:hr>140</ns3:hr>
          </ns3:TrackPointExtension>
        </extensions>
      </trkpt>
      <trkpt lat="24.48782122693955898284912109375" lon="118.10383359901607036590576171875">
        <ele>9</ele>
        <time>2026-05-07T13:19:42.000Z</time>
        <extensions>
          <ns3:TrackPointExtension>
            <ns3:hr>140</ns3:hr>
          </ns3:TrackPointExtension>
        </extensions>
      </trkpt>
      <trkpt lat="24.48782675899565219879150390625" lon="118.10386712662875652313232421875">
        <ele>8.6000003814697265625</ele>
        <time>2026-05-07T13:19:43.000Z</time>
        <extensions>
          <ns3:TrackPointExtension>
            <ns3:hr>140</ns3:hr>
          </ns3:TrackPointExtension>
        </extensions>
      </trkpt>
      <trkpt lat="24.48783363215625286102294921875" lon="118.10390031896531581878662109375">
        <ele>8.19999980926513671875</ele>
        <time>2026-05-07T13:19:44.000Z</time>
        <extensions>
          <ns3:TrackPointExtension>
            <ns3:hr>140</ns3:hr>
          </ns3:TrackPointExtension>
        </extensions>
      </trkpt>
      <trkpt lat="24.4878419302403926849365234375" lon="118.10393317602574825286865234375">
        <ele>8</ele>
        <time>2026-05-07T13:19:45.000Z</time>
        <extensions>
          <ns3:TrackPointExtension>
            <ns3:hr>140</ns3:hr>
          </ns3:TrackPointExtension>
        </extensions>
      </trkpt>
      <trkpt lat="24.48785148561000823974609375" lon="118.10396569781005382537841796875">
        <ele>7.80000019073486328125</ele>
        <time>2026-05-07T13:19:46.000Z</time>
        <extensions>
          <ns3:TrackPointExtension>
            <ns3:hr>140</ns3:hr>
          </ns3:TrackPointExtension>
        </extensions>
      </trkpt>
      <trkpt lat="24.4878620468080043792724609375" lon="118.10399821959435939788818359375">
        <ele>7.599999904632568359375</ele>
        <time>2026-05-07T13:19:47.000Z</time>
        <extensions>
          <ns3:TrackPointExtension>
            <ns3:hr>141</ns3:hr>
          </ns3:TrackPointExtension>
        </extensions>
      </trkpt>
      <trkpt lat="24.48787353001534938812255859375" lon="118.104030825197696685791015625">
        <ele>7.400000095367431640625</ele>
        <time>2026-05-07T13:19:48.000Z</time>
        <extensions>
          <ns3:TrackPointExtension>
            <ns3:hr>142</ns3:hr>
          </ns3:TrackPointExtension>
        </extensions>
      </trkpt>
      <trkpt lat="24.48788593523204326629638671875" lon="118.10406309552490711212158203125">
        <ele>7.19999980926513671875</ele>
        <time>2026-05-07T13:19:49.000Z</time>
        <extensions>
          <ns3:TrackPointExtension>
            <ns3:hr>142</ns3:hr>
          </ns3:TrackPointExtension>
        </extensions>
      </trkpt>
      <trkpt lat="24.4878992624580860137939453125" lon="118.10409511439502239227294921875">
        <ele>6.80000019073486328125</ele>
        <time>2026-05-07T13:19:50.000Z</time>
        <extensions>
          <ns3:TrackPointExtension>
            <ns3:hr>142</ns3:hr>
          </ns3:TrackPointExtension>
        </extensions>
      </trkpt>
      <trkpt lat="24.48791317641735076904296875" lon="118.1041268818080425262451171875">
        <ele>6.599999904632568359375</ele>
        <time>2026-05-07T13:19:51.000Z</time>
        <extensions>
          <ns3:TrackPointExtension>
            <ns3:hr>142</ns3:hr>
          </ns3:TrackPointExtension>
        </extensions>
      </trkpt>
      <trkpt lat="24.48792784474790096282958984375" lon="118.104158230125904083251953125">
        <ele>6.19999980926513671875</ele>
        <time>2026-05-07T13:19:52.000Z</time>
        <extensions>
          <ns3:TrackPointExtension>
            <ns3:hr>142</ns3:hr>
          </ns3:TrackPointExtension>
        </extensions>
      </trkpt>
      <trkpt lat="24.4879435189068317413330078125" lon="118.10418882407248020172119140625">
        <ele>6</ele>
        <time>2026-05-07T13:19:53.000Z</time>
        <extensions>
          <ns3:TrackPointExtension>
            <ns3:hr>142</ns3:hr>
          </ns3:TrackPointExtension>
        </extensions>
      </trkpt>
      <trkpt lat="24.48796036653220653533935546875" lon="118.10421849600970745086669921875">
        <ele>5.80000019073486328125</ele>
        <time>2026-05-07T13:19:54.000Z</time>
        <extensions>
          <ns3:TrackPointExtension>
            <ns3:hr>142</ns3:hr>
          </ns3:TrackPointExtension>
        </extensions>
      </trkpt>
      <trkpt lat="24.4879783876240253448486328125" lon="118.10424732975661754608154296875">
        <ele>5.80000019073486328125</ele>
        <time>2026-05-07T13:19:55.000Z</time>
        <extensions>
          <ns3:TrackPointExtension>
            <ns3:hr>142</ns3:hr>
          </ns3:TrackPointExtension>
        </extensions>
      </trkpt>
      <trkpt lat="24.4879974983632564544677734375" lon="118.1042757444083690643310546875">
        <ele>5.80000019073486328125</ele>
        <time>2026-05-07T13:19:56.000Z</time>
        <extensions>
          <ns3:TrackPointExtension>
            <ns3:hr>142</ns3:hr>
          </ns3:TrackPointExtension>
        </extensions>
      </trkpt>
      <trkpt lat="24.48801719583570957183837890625" lon="118.10430382378399372100830078125">
        <ele>5.80000019073486328125</ele>
        <time>2026-05-07T13:19:57.000Z</time>
        <extensions>
          <ns3:TrackPointExtension>
            <ns3:hr>142</ns3:hr>
          </ns3:TrackPointExtension>
        </extensions>
      </trkpt>
      <trkpt lat="24.48803731240332126617431640625" lon="118.10433148406445980072021484375">
        <ele>5.80000019073486328125</ele>
        <time>2026-05-07T13:19:58.000Z</time>
        <extensions>
          <ns3:TrackPointExtension>
            <ns3:hr>142</ns3:hr>
          </ns3:TrackPointExtension>
        </extensions>
      </trkpt>
      <trkpt lat="24.4880578480660915374755859375" lon="118.10435864143073558807373046875">
        <ele>6</ele>
        <time>2026-05-07T13:19:59.000Z</time>
        <extensions>
          <ns3:TrackPointExtension>
            <ns3:hr>143</ns3:hr>
          </ns3:TrackPointExtension>
        </extensions>
      </trkpt>
      <trkpt lat="24.48807888664305210113525390625" lon="118.10438546352088451385498046875">
        <ele>6</ele>
        <time>2026-05-07T13:20:00.000Z</time>
        <extensions>
          <ns3:TrackPointExtension>
            <ns3:hr>143</ns3:hr>
          </ns3:TrackPointExtension>
        </extensions>
      </trkpt>
      <trkpt lat="24.48810034431517124176025390625" lon="118.10441203415393829345703125">
        <ele>6</ele>
        <time>2026-05-07T13:20:01.000Z</time>
        <extensions>
          <ns3:TrackPointExtension>
            <ns3:hr>143</ns3:hr>
          </ns3:TrackPointExtension>
        </extensions>
      </trkpt>
      <trkpt lat="24.48812196962535381317138671875" lon="118.10443776659667491912841796875">
        <ele>6</ele>
        <time>2026-05-07T13:20:02.000Z</time>
        <extensions>
          <ns3:TrackPointExtension>
            <ns3:hr>143</ns3:hr>
          </ns3:TrackPointExtension>
        </extensions>
      </trkpt>
      <trkpt lat="24.48814376257359981536865234375" lon="118.10446240939199924468994140625">
        <ele>6</ele>
        <time>2026-05-07T13:20:03.000Z</time>
        <extensions>
          <ns3:TrackPointExtension>
            <ns3:hr>143</ns3:hr>
          </ns3:TrackPointExtension>
        </extensions>
      </trkpt>
      <trkpt lat="24.4881661422550678253173828125" lon="118.10448638163506984710693359375">
        <ele>6</ele>
        <time>2026-05-07T13:20:04.000Z</time>
        <extensions>
          <ns3:TrackPointExtension>
            <ns3:hr>143</ns3:hr>
          </ns3:TrackPointExtension>
        </extensions>
      </trkpt>
      <trkpt lat="24.488189108669757843017578125" lon="118.1045097671449184417724609375">
        <ele>5.80000019073486328125</ele>
        <time>2026-05-07T13:20:05.000Z</time>
        <extensions>
          <ns3:TrackPointExtension>
            <ns3:hr>143</ns3:hr>
          </ns3:TrackPointExtension>
        </extensions>
      </trkpt>
      <trkpt lat="24.48821282945573329925537109375" lon="118.104532398283481597900390625">
        <ele>5.80000019073486328125</ele>
        <time>2026-05-07T13:20:06.000Z</time>
        <extensions>
          <ns3:TrackPointExtension>
            <ns3:hr>143</ns3:hr>
          </ns3:TrackPointExtension>
        </extensions>
      </trkpt>
      <trkpt lat="24.48823747225105762481689453125" lon="118.104553520679473876953125">
        <ele>5.80000019073486328125</ele>
        <time>2026-05-07T13:20:07.000Z</time>
        <extensions>
          <ns3:TrackPointExtension>
            <ns3:hr>143</ns3:hr>
          </ns3:TrackPointExtension>
        </extensions>
      </trkpt>
      <trkpt lat="24.48826295323669910430908203125" lon="118.104572631418704986572265625">
        <ele>5.599999904632568359375</ele>
        <time>2026-05-07T13:20:08.000Z</time>
        <extensions>
          <ns3:TrackPointExtension>
            <ns3:hr>143</ns3:hr>
          </ns3:TrackPointExtension>
        </extensions>
      </trkpt>
      <trkpt lat="24.4882891885936260223388671875" lon="118.1045898981392383575439453125">
        <ele>5.400000095367431640625</ele>
        <time>2026-05-07T13:20:09.000Z</time>
        <extensions>
          <ns3:TrackPointExtension>
            <ns3:hr>143</ns3:hr>
          </ns3:TrackPointExtension>
        </extensions>
      </trkpt>
      <trkpt lat="24.488315843045711517333984375" lon="118.1046056561172008514404296875">
        <ele>5.400000095367431640625</ele>
        <time>2026-05-07T13:20:10.000Z</time>
        <extensions>
          <ns3:TrackPointExtension>
            <ns3:hr>143</ns3:hr>
          </ns3:TrackPointExtension>
        </extensions>
      </trkpt>
      <trkpt lat="24.4883428327739238739013671875" lon="118.10462057590484619140625">
        <ele>5.19999980926513671875</ele>
        <time>2026-05-07T13:20:11.000Z</time>
        <extensions>
          <ns3:TrackPointExtension>
            <ns3:hr>143</ns3:hr>
          </ns3:TrackPointExtension>
        </extensions>
      </trkpt>
      <trkpt lat="24.4883699901401996612548828125" lon="118.10463457368314266204833984375">
        <ele>5</ele>
        <time>2026-05-07T13:20:12.000Z</time>
        <extensions>
          <ns3:TrackPointExtension>
            <ns3:hr>143</ns3:hr>
          </ns3:TrackPointExtension>
        </extensions>
      </trkpt>
      <trkpt lat="24.48839756660163402557373046875" lon="118.1046475656330585479736328125">
        <ele>4.80000019073486328125</ele>
        <time>2026-05-07T13:20:13.000Z</time>
        <extensions>
          <ns3:TrackPointExtension>
            <ns3:hr>143</ns3:hr>
          </ns3:TrackPointExtension>
        </extensions>
      </trkpt>
      <trkpt lat="24.48842556215822696685791015625" lon="118.104659803211688995361328125">
        <ele>4.80000019073486328125</ele>
        <time>2026-05-07T13:20:14.000Z</time>
        <extensions>
          <ns3:TrackPointExtension>
            <ns3:hr>145</ns3:hr>
          </ns3:TrackPointExtension>
        </extensions>
      </trkpt>
      <trkpt lat="24.48845355771481990814208984375" lon="118.10467128641903400421142578125">
        <ele>4.599999904632568359375</ele>
        <time>2026-05-07T13:20:15.000Z</time>
        <extensions>
          <ns3:TrackPointExtension>
            <ns3:hr>145</ns3:hr>
          </ns3:TrackPointExtension>
        </extensions>
      </trkpt>
      <trkpt lat="24.4884813018143177032470703125" lon="118.10468201525509357452392578125">
        <ele>4.599999904632568359375</ele>
        <time>2026-05-07T13:20:16.000Z</time>
        <extensions>
          <ns3:TrackPointExtension>
            <ns3:hr>145</ns3:hr>
          </ns3:TrackPointExtension>
        </extensions>
      </trkpt>
      <trkpt lat="24.48850871063768863677978515625" lon="118.10469173826277256011962890625">
        <ele>4.80000019073486328125</ele>
        <time>2026-05-07T13:20:17.000Z</time>
        <extensions>
          <ns3:TrackPointExtension>
            <ns3:hr>145</ns3:hr>
          </ns3:TrackPointExtension>
        </extensions>
      </trkpt>
      <trkpt lat="24.48853603564202785491943359375" lon="118.104700706899166107177734375">
        <ele>4.80000019073486328125</ele>
        <time>2026-05-07T13:20:18.000Z</time>
        <extensions>
          <ns3:TrackPointExtension>
            <ns3:hr>145</ns3:hr>
          </ns3:TrackPointExtension>
        </extensions>
      </trkpt>
      <trkpt lat="24.488563276827335357666015625" lon="118.1047092564404010772705078125">
        <ele>4.80000019073486328125</ele>
        <time>2026-05-07T13:20:19.000Z</time>
        <extensions>
          <ns3:TrackPointExtension>
            <ns3:hr>145</ns3:hr>
          </ns3:TrackPointExtension>
        </extensions>
      </trkpt>
      <trkpt lat="24.48859043419361114501953125" lon="118.1047176383435726165771484375">
        <ele>4.80000019073486328125</ele>
        <time>2026-05-07T13:20:20.000Z</time>
        <extensions>
          <ns3:TrackPointExtension>
            <ns3:hr>145</ns3:hr>
          </ns3:TrackPointExtension>
        </extensions>
      </trkpt>
      <trkpt lat="24.48861750774085521697998046875" lon="118.10472593642771244049072265625">
        <ele>4.80000019073486328125</ele>
        <time>2026-05-07T13:20:21.000Z</time>
        <extensions>
          <ns3:TrackPointExtension>
            <ns3:hr>144</ns3:hr>
          </ns3:TrackPointExtension>
        </extensions>
      </trkpt>
      <trkpt lat="24.4886447489261627197265625" lon="118.1047340668737888336181640625">
        <ele>4.80000019073486328125</ele>
        <time>2026-05-07T13:20:22.000Z</time>
        <extensions>
          <ns3:TrackPointExtension>
            <ns3:hr>144</ns3:hr>
          </ns3:TrackPointExtension>
        </extensions>
      </trkpt>
      <trkpt lat="24.48867224156856536865234375" lon="118.1047417782247066497802734375">
        <ele>4.80000019073486328125</ele>
        <time>2026-05-07T13:20:23.000Z</time>
        <extensions>
          <ns3:TrackPointExtension>
            <ns3:hr>144</ns3:hr>
          </ns3:TrackPointExtension>
        </extensions>
      </trkpt>
      <trkpt lat="24.4886999018490314483642578125" lon="118.10474923811852931976318359375">
        <ele>5</ele>
        <time>2026-05-07T13:20:24.000Z</time>
        <extensions>
          <ns3:TrackPointExtension>
            <ns3:hr>144</ns3:hr>
          </ns3:TrackPointExtension>
        </extensions>
      </trkpt>
      <trkpt lat="24.48872798122465610504150390625" lon="118.104756362736225128173828125">
        <ele>5</ele>
        <time>2026-05-07T13:20:25.000Z</time>
        <extensions>
          <ns3:TrackPointExtension>
            <ns3:hr>144</ns3:hr>
          </ns3:TrackPointExtension>
        </extensions>
      </trkpt>
      <trkpt lat="24.4887562282383441925048828125" lon="118.10476298443973064422607421875">
        <ele>5.19999980926513671875</ele>
        <time>2026-05-07T13:20:26.000Z</time>
        <extensions>
          <ns3:TrackPointExtension>
            <ns3:hr>144</ns3:hr>
          </ns3:TrackPointExtension>
        </extensions>
      </trkpt>
      <trkpt lat="24.48878481052815914154052734375" lon="118.10476901941001415252685546875">
        <ele>5.19999980926513671875</ele>
        <time>2026-05-07T13:20:27.000Z</time>
        <extensions>
          <ns3:TrackPointExtension>
            <ns3:hr>144</ns3:hr>
          </ns3:TrackPointExtension>
        </extensions>
      </trkpt>
      <trkpt lat="24.48881364427506923675537109375" lon="118.10477455146610736846923828125">
        <ele>5.400000095367431640625</ele>
        <time>2026-05-07T13:20:28.000Z</time>
        <extensions>
          <ns3:TrackPointExtension>
            <ns3:hr>144</ns3:hr>
          </ns3:TrackPointExtension>
        </extensions>
      </trkpt>
      <trkpt lat="24.48884256184101104736328125" lon="118.10477958060801029205322265625">
        <ele>5.400000095367431640625</ele>
        <time>2026-05-07T13:20:29.000Z</time>
        <extensions>
          <ns3:TrackPointExtension>
            <ns3:hr>145</ns3:hr>
          </ns3:TrackPointExtension>
        </extensions>
      </trkpt>
      <trkpt lat="24.488871395587921142578125" lon="118.10478393919765949249267578125">
        <ele>5.400000095367431640625</ele>
        <time>2026-05-07T13:20:30.000Z</time>
        <extensions>
          <ns3:TrackPointExtension>
            <ns3:hr>145</ns3:hr>
          </ns3:TrackPointExtension>
        </extensions>
      </trkpt>
      <trkpt lat="24.48890014551579952239990234375" lon="118.1047873757779598236083984375">
        <ele>5.599999904632568359375</ele>
        <time>2026-05-07T13:20:31.000Z</time>
        <extensions>
          <ns3:TrackPointExtension>
            <ns3:hr>145</ns3:hr>
          </ns3:TrackPointExtension>
        </extensions>
      </trkpt>
      <trkpt lat="24.48892881162464618682861328125" lon="118.1047897227108478546142578125">
        <ele>5.599999904632568359375</ele>
        <time>2026-05-07T13:20:32.000Z</time>
        <extensions>
          <ns3:TrackPointExtension>
            <ns3:hr>145</ns3:hr>
          </ns3:TrackPointExtension>
        </extensions>
      </trkpt>
      <trkpt lat="24.48895747773349285125732421875" lon="118.1047907285392284393310546875">
        <ele>5.80000019073486328125</ele>
        <time>2026-05-07T13:20:33.000Z</time>
        <extensions>
          <ns3:TrackPointExtension>
            <ns3:hr>145</ns3:hr>
          </ns3:TrackPointExtension>
        </extensions>
      </trkpt>
      <trkpt lat="24.4889862276613712310791015625" lon="118.10479081235826015472412109375">
        <ele>5.80000019073486328125</ele>
        <time>2026-05-07T13:20:34.000Z</time>
        <extensions>
          <ns3:TrackPointExtension>
            <ns3:hr>145</ns3:hr>
          </ns3:TrackPointExtension>
        </extensions>
      </trkpt>
      <trkpt lat="24.4890150614082813262939453125" lon="118.1047903932631015777587890625">
        <ele>5.80000019073486328125</ele>
        <time>2026-05-07T13:20:35.000Z</time>
        <extensions>
          <ns3:TrackPointExtension>
            <ns3:hr>145</ns3:hr>
          </ns3:TrackPointExtension>
        </extensions>
      </trkpt>
      <trkpt lat="24.48904414661228656768798828125" lon="118.1047893874347209930419921875">
        <ele>5.599999904632568359375</ele>
        <time>2026-05-07T13:20:36.000Z</time>
        <extensions>
          <ns3:TrackPointExtension>
            <ns3:hr>145</ns3:hr>
          </ns3:TrackPointExtension>
        </extensions>
      </trkpt>
      <trkpt lat="24.48907348327338695526123046875" lon="118.10478745959699153900146484375">
        <ele>5.599999904632568359375</ele>
        <time>2026-05-07T13:20:37.000Z</time>
        <extensions>
          <ns3:TrackPointExtension>
            <ns3:hr>145</ns3:hr>
          </ns3:TrackPointExtension>
        </extensions>
      </trkpt>
      <trkpt lat="24.48910273611545562744140625" lon="118.104784190654754638671875">
        <ele>5.400000095367431640625</ele>
        <time>2026-05-07T13:20:38.000Z</time>
        <extensions>
          <ns3:TrackPointExtension>
            <ns3:hr>145</ns3:hr>
          </ns3:TrackPointExtension>
        </extensions>
      </trkpt>
      <trkpt lat="24.489131234586238861083984375" lon="118.10477958060801029205322265625">
        <ele>5.400000095367431640625</ele>
        <time>2026-05-07T13:20:39.000Z</time>
        <extensions>
          <ns3:TrackPointExtension>
            <ns3:hr>145</ns3:hr>
          </ns3:TrackPointExtension>
        </extensions>
      </trkpt>
      <trkpt lat="24.4891588948667049407958984375" lon="118.1047739647328853607177734375">
        <ele>5.400000095367431640625</ele>
        <time>2026-05-07T13:20:40.000Z</time>
        <extensions>
          <ns3:TrackPointExtension>
            <ns3:hr>145</ns3:hr>
          </ns3:TrackPointExtension>
        </extensions>
      </trkpt>
      <trkpt lat="24.489186219871044158935546875" lon="118.1047672592103481292724609375">
        <ele>5.400000095367431640625</ele>
        <time>2026-05-07T13:20:41.000Z</time>
        <extensions>
          <ns3:TrackPointExtension>
            <ns3:hr>145</ns3:hr>
          </ns3:TrackPointExtension>
        </extensions>
      </trkpt>
      <trkpt lat="24.48921312578022480010986328125" lon="118.1047592125833034515380859375">
        <ele>5.400000095367431640625</ele>
        <time>2026-05-07T13:20:42.000Z</time>
        <extensions>
          <ns3:TrackPointExtension>
            <ns3:hr>145</ns3:hr>
          </ns3:TrackPointExtension>
        </extensions>
      </trkpt>
      <trkpt lat="24.48923961259424686431884765625" lon="118.10474940575659275054931640625">
        <ele>5.400000095367431640625</ele>
        <time>2026-05-07T13:20:43.000Z</time>
        <extensions>
          <ns3:TrackPointExtension>
            <ns3:hr>146</ns3:hr>
          </ns3:TrackPointExtension>
        </extensions>
      </trkpt>
      <trkpt lat="24.48926559649407863616943359375" lon="118.1047384254634380340576171875">
        <ele>5.599999904632568359375</ele>
        <time>2026-05-07T13:20:44.000Z</time>
        <extensions>
          <ns3:TrackPointExtension>
            <ns3:hr>146</ns3:hr>
          </ns3:TrackPointExtension>
        </extensions>
      </trkpt>
      <trkpt lat="24.4892916642129421234130859375" lon="118.1047266907989978790283203125">
        <ele>5.599999904632568359375</ele>
        <time>2026-05-07T13:20:45.000Z</time>
        <extensions>
          <ns3:TrackPointExtension>
            <ns3:hr>146</ns3:hr>
          </ns3:TrackPointExtension>
        </extensions>
      </trkpt>
      <trkpt lat="24.48931806720793247222900390625" lon="118.10471403412520885467529296875">
        <ele>5.400000095367431640625</ele>
        <time>2026-05-07T13:20:46.000Z</time>
        <extensions>
          <ns3:TrackPointExtension>
            <ns3:hr>146</ns3:hr>
          </ns3:TrackPointExtension>
        </extensions>
      </trkpt>
      <trkpt lat="24.48934421874582767486572265625" lon="118.10470062308013439178466796875">
        <ele>5.400000095367431640625</ele>
        <time>2026-05-07T13:20:47.000Z</time>
        <extensions>
          <ns3:TrackPointExtension>
            <ns3:hr>146</ns3:hr>
          </ns3:TrackPointExtension>
        </extensions>
      </trkpt>
      <trkpt lat="24.48936961591243743896484375" lon="118.1046864576637744903564453125">
        <ele>5.19999980926513671875</ele>
        <time>2026-05-07T13:20:48.000Z</time>
        <extensions>
          <ns3:TrackPointExtension>
            <ns3:hr>146</ns3:hr>
          </ns3:TrackPointExtension>
        </extensions>
      </trkpt>
      <trkpt lat="24.4893942587077617645263671875" lon="118.10467162169516086578369140625">
        <ele>5.19999980926513671875</ele>
        <time>2026-05-07T13:20:49.000Z</time>
        <extensions>
          <ns3:TrackPointExtension>
            <ns3:hr>146</ns3:hr>
          </ns3:TrackPointExtension>
        </extensions>
      </trkpt>
      <trkpt lat="24.48941848240792751312255859375" lon="118.10465611517429351806640625">
        <ele>5.19999980926513671875</ele>
        <time>2026-05-07T13:20:50.000Z</time>
        <extensions>
          <ns3:TrackPointExtension>
            <ns3:hr>146</ns3:hr>
          </ns3:TrackPointExtension>
        </extensions>
      </trkpt>
      <trkpt lat="24.4894422031939029693603515625" lon="118.1046401895582675933837890625">
        <ele>5</ele>
        <time>2026-05-07T13:20:51.000Z</time>
        <extensions>
          <ns3:TrackPointExtension>
            <ns3:hr>146</ns3:hr>
          </ns3:TrackPointExtension>
        </extensions>
      </trkpt>
      <trkpt lat="24.48946542106568813323974609375" lon="118.10462350957095623016357421875">
        <ele>5</ele>
        <time>2026-05-07T13:20:52.000Z</time>
        <extensions>
          <ns3:TrackPointExtension>
            <ns3:hr>146</ns3:hr>
          </ns3:TrackPointExtension>
        </extensions>
      </trkpt>
      <trkpt lat="24.48948805220425128936767578125" lon="118.1046063266694545745849609375">
        <ele>4.80000019073486328125</ele>
        <time>2026-05-07T13:20:53.000Z</time>
        <extensions>
          <ns3:TrackPointExtension>
            <ns3:hr>142</ns3:hr>
          </ns3:TrackPointExtension>
        </extensions>
      </trkpt>
      <trkpt lat="24.48951001279056072235107421875" lon="118.1045885570347309112548828125">
        <ele>4.599999904632568359375</ele>
        <time>2026-05-07T13:20:54.000Z</time>
        <extensions>
          <ns3:TrackPointExtension>
            <ns3:hr>142</ns3:hr>
          </ns3:TrackPointExtension>
        </extensions>
      </trkpt>
      <trkpt lat="24.48953063227236270904541015625" lon="118.10457036830484867095947265625">
        <ele>4.599999904632568359375</ele>
        <time>2026-05-07T13:20:55.000Z</time>
        <extensions>
          <ns3:TrackPointExtension>
            <ns3:hr>142</ns3:hr>
          </ns3:TrackPointExtension>
        </extensions>
      </trkpt>
      <trkpt lat="24.4895491562783718109130859375" lon="118.1045520119369029998779296875">
        <ele>4.400000095367431640625</ele>
        <time>2026-05-07T13:20:56.000Z</time>
        <extensions>
          <ns3:TrackPointExtension>
            <ns3:hr>142</ns3:hr>
          </ns3:TrackPointExtension>
        </extensions>
      </trkpt>
      <trkpt lat="24.4895645789802074432373046875" lon="118.1045342423021793365478515625">
        <ele>4.599999904632568359375</ele>
        <time>2026-05-07T13:20:57.000Z</time>
        <extensions>
          <ns3:TrackPointExtension>
            <ns3:hr>142</ns3:hr>
          </ns3:TrackPointExtension>
        </extensions>
      </trkpt>
      <trkpt lat="24.48957690037786960601806640625" lon="118.1045186519622802734375">
        <ele>4.599999904632568359375</ele>
        <time>2026-05-07T13:20:58.000Z</time>
        <extensions>
          <ns3:TrackPointExtension>
            <ns3:hr>142</ns3:hr>
          </ns3:TrackPointExtension>
        </extensions>
      </trkpt>
      <trkpt lat="24.48958679102361202239990234375" lon="118.10450683347880840301513671875">
        <ele>4.80000019073486328125</ele>
        <time>2026-05-07T13:20:59.000Z</time>
        <extensions>
          <ns3:TrackPointExtension>
            <ns3:hr>142</ns3:hr>
          </ns3:TrackPointExtension>
        </extensions>
      </trkpt>
      <trkpt lat="24.48959517292678356170654296875" lon="118.10449920594692230224609375">
        <ele>4.80000019073486328125</ele>
        <time>2026-05-07T13:21:00.000Z</time>
        <extensions>
          <ns3:TrackPointExtension>
            <ns3:hr>142</ns3:hr>
          </ns3:TrackPointExtension>
        </extensions>
      </trkpt>
      <trkpt lat="24.48960355482995510101318359375" lon="118.10449476353824138641357421875">
        <ele>4.80000019073486328125</ele>
        <time>2026-05-07T13:21:01.000Z</time>
        <extensions>
          <ns3:TrackPointExtension>
            <ns3:hr>140</ns3:hr>
          </ns3:TrackPointExtension>
        </extensions>
      </trkpt>
      <trkpt lat="24.48961369693279266357421875" lon="118.104492165148258209228515625">
        <ele>4.80000019073486328125</ele>
        <time>2026-05-07T13:21:02.000Z</time>
        <extensions>
          <ns3:TrackPointExtension>
            <ns3:hr>140</ns3:hr>
          </ns3:TrackPointExtension>
        </extensions>
      </trkpt>
      <trkpt lat="24.4896262697875499725341796875" lon="118.10449057258665561676025390625">
        <ele>4.80000019073486328125</ele>
        <time>2026-05-07T13:21:03.000Z</time>
        <extensions>
          <ns3:TrackPointExtension>
            <ns3:hr>140</ns3:hr>
          </ns3:TrackPointExtension>
        </extensions>
      </trkpt>
      <trkpt lat="24.4896400161087512969970703125" lon="118.104489482939243316650390625">
        <ele>4.80000019073486328125</ele>
        <time>2026-05-07T13:21:04.000Z</time>
        <extensions>
          <ns3:TrackPointExtension>
            <ns3:hr>140</ns3:hr>
          </ns3:TrackPointExtension>
        </extensions>
      </trkpt>
      <trkpt lat="24.48965351097285747528076171875" lon="118.10448872856795787811279296875">
        <ele>4.80000019073486328125</ele>
        <time>2026-05-07T13:21:05.000Z</time>
        <extensions>
          <ns3:TrackPointExtension>
            <ns3:hr>134</ns3:hr>
          </ns3:TrackPointExtension>
        </extensions>
      </trkpt>
      <trkpt lat="24.48966558091342449188232421875" lon="118.1044883094727993011474609375">
        <ele>4.599999904632568359375</ele>
        <time>2026-05-07T13:21:06.000Z</time>
        <extensions>
          <ns3:TrackPointExtension>
            <ns3:hr>134</ns3:hr>
          </ns3:TrackPointExtension>
        </extensions>
      </trkpt>
      <trkpt lat="24.4896762259304523468017578125" lon="118.104488141834735870361328125">
        <ele>4.599999904632568359375</ele>
        <time>2026-05-07T13:21:07.000Z</time>
        <extensions>
          <ns3:TrackPointExtension>
            <ns3:hr>134</ns3:hr>
          </ns3:TrackPointExtension>
        </extensions>
      </trkpt>
      <trkpt lat="24.48968586511909961700439453125" lon="118.10448805801570415496826171875">
        <ele>4.599999904632568359375</ele>
        <time>2026-05-07T13:21:08.000Z</time>
        <extensions>
          <ns3:TrackPointExtension>
            <ns3:hr>134</ns3:hr>
          </ns3:TrackPointExtension>
        </extensions>
      </trkpt>
      <trkpt lat="24.4896953366696834564208984375" lon="118.10448789037764072418212890625">
        <ele>4.599999904632568359375</ele>
        <time>2026-05-07T13:21:09.000Z</time>
        <extensions>
          <ns3:TrackPointExtension>
            <ns3:hr>134</ns3:hr>
          </ns3:TrackPointExtension>
        </extensions>
      </trkpt>
      <trkpt lat="24.489705227315425872802734375" lon="118.1044873036444187164306640625">
        <ele>4.599999904632568359375</ele>
        <time>2026-05-07T13:21:10.000Z</time>
        <extensions>
          <ns3:TrackPointExtension>
            <ns3:hr>134</ns3:hr>
          </ns3:TrackPointExtension>
        </extensions>
      </trkpt>
      <trkpt lat="24.48971553705632686614990234375" lon="118.10448621399700641632080078125">
        <ele>4.599999904632568359375</ele>
        <time>2026-05-07T13:21:11.000Z</time>
        <extensions>
          <ns3:TrackPointExtension>
            <ns3:hr>134</ns3:hr>
          </ns3:TrackPointExtension>
        </extensions>
      </trkpt>
      <trkpt lat="24.48972576297819614410400390625" lon="118.1044846214354038238525390625">
        <ele>4.599999904632568359375</ele>
        <time>2026-05-07T13:21:12.000Z</time>
        <extensions>
          <ns3:TrackPointExtension>
            <ns3:hr>133</ns3:hr>
          </ns3:TrackPointExtension>
        </extensions>
      </trkpt>
      <trkpt lat="24.48973481543362140655517578125" lon="118.10448286123573780059814453125">
        <ele>4.400000095367431640625</ele>
        <time>2026-05-07T13:21:13.000Z</time>
        <extensions>
          <ns3:TrackPointExtension>
            <ns3:hr>124</ns3:hr>
          </ns3:TrackPointExtension>
        </extensions>
      </trkpt>
      <trkpt lat="24.489743448793888092041015625" lon="118.10448068194091320037841796875">
        <ele>4.400000095367431640625</ele>
        <time>2026-05-07T13:21:14.000Z</time>
        <extensions>
          <ns3:TrackPointExtension>
            <ns3:hr>124</ns3:hr>
          </ns3:TrackPointExtension>
        </extensions>
      </trkpt>
      <trkpt lat="24.48975107632577419281005859375" lon="118.1044782511889934539794921875">
        <ele>4.400000095367431640625</ele>
        <time>2026-05-07T13:21:15.000Z</time>
        <extensions>
          <ns3:TrackPointExtension>
            <ns3:hr>124</ns3:hr>
          </ns3:TrackPointExtension>
        </extensions>
      </trkpt>
      <trkpt lat="24.48975845240056514739990234375" lon="118.1044752337038516998291015625">
        <ele>4.400000095367431640625</ele>
        <time>2026-05-07T13:21:16.000Z</time>
        <extensions>
          <ns3:TrackPointExtension>
            <ns3:hr>124</ns3:hr>
          </ns3:TrackPointExtension>
        </extensions>
      </trkpt>
      <trkpt lat="24.48976633138954639434814453125" lon="118.1044715456664562225341796875">
        <ele>4.599999904632568359375</ele>
        <time>2026-05-07T13:21:17.000Z</time>
        <extensions>
          <ns3:TrackPointExtension>
            <ns3:hr>124</ns3:hr>
          </ns3:TrackPointExtension>
        </extensions>
      </trkpt>
      <trkpt lat="24.48977454565465450286865234375" lon="118.10446676798164844512939453125">
        <ele>4.599999904632568359375</ele>
        <time>2026-05-07T13:21:18.000Z</time>
        <extensions>
          <ns3:TrackPointExtension>
            <ns3:hr>124</ns3:hr>
          </ns3:TrackPointExtension>
        </extensions>
      </trkpt>
      <trkpt lat="24.4897828437387943267822265625" lon="118.1044611521065235137939453125">
        <ele>4.599999904632568359375</ele>
        <time>2026-05-07T13:21:19.000Z</time>
        <extensions>
          <ns3:TrackPointExtension>
            <ns3:hr>124</ns3:hr>
          </ns3:TrackPointExtension>
        </extensions>
      </trkpt>
      <trkpt lat="24.489791058003902435302734375" lon="118.10445503331720829010009765625">
        <ele>4.599999904632568359375</ele>
        <time>2026-05-07T13:21:20.000Z</time>
        <extensions>
          <ns3:TrackPointExtension>
            <ns3:hr>124</ns3:hr>
          </ns3:TrackPointExtension>
        </extensions>
      </trkpt>
      <trkpt lat="24.48979885317385196685791015625" lon="118.10444866307079792022705078125">
        <ele>4.599999904632568359375</ele>
        <time>2026-05-07T13:21:21.000Z</time>
        <extensions>
          <ns3:TrackPointExtension>
            <ns3:hr>124</ns3:hr>
          </ns3:TrackPointExtension>
        </extensions>
      </trkpt>
      <trkpt lat="24.4898061454296112060546875" lon="118.10444229282438755035400390625">
        <ele>4.599999904632568359375</ele>
        <time>2026-05-07T13:21:22.000Z</time>
        <extensions>
          <ns3:TrackPointExtension>
            <ns3:hr>123</ns3:hr>
          </ns3:TrackPointExtension>
        </extensions>
      </trkpt>
      <trkpt lat="24.48981293477118015289306640625" lon="118.10443625785410404205322265625">
        <ele>4.599999904632568359375</ele>
        <time>2026-05-07T13:21:23.000Z</time>
        <extensions>
          <ns3:TrackPointExtension>
            <ns3:hr>113</ns3:hr>
          </ns3:TrackPointExtension>
        </extensions>
      </trkpt>
      <trkpt lat="24.48981947265565395355224609375" lon="118.104430139064788818359375">
        <ele>4.599999904632568359375</ele>
        <time>2026-05-07T13:21:24.000Z</time>
        <extensions>
          <ns3:TrackPointExtension>
            <ns3:hr>113</ns3:hr>
          </ns3:TrackPointExtension>
        </extensions>
      </trkpt>
      <trkpt lat="24.48982617817819118499755859375" lon="118.104423768818378448486328125">
        <ele>4.599999904632568359375</ele>
        <time>2026-05-07T13:21:25.000Z</time>
        <extensions>
          <ns3:TrackPointExtension>
            <ns3:hr>113</ns3:hr>
          </ns3:TrackPointExtension>
        </extensions>
      </trkpt>
      <trkpt lat="24.48983338661491870880126953125" lon="118.104417063295841217041015625">
        <ele>4.599999904632568359375</ele>
        <time>2026-05-07T13:21:26.000Z</time>
        <extensions>
          <ns3:TrackPointExtension>
            <ns3:hr>113</ns3:hr>
          </ns3:TrackPointExtension>
        </extensions>
      </trkpt>
      <trkpt lat="24.4898410141468048095703125" lon="118.1044100224971771240234375">
        <ele>4.599999904632568359375</ele>
        <time>2026-05-07T13:21:27.000Z</time>
        <extensions>
          <ns3:TrackPointExtension>
            <ns3:hr>113</ns3:hr>
          </ns3:TrackPointExtension>
        </extensions>
      </trkpt>
      <trkpt lat="24.48984931223094463348388671875" lon="118.10440264642238616943359375">
        <ele>4.599999904632568359375</ele>
        <time>2026-05-07T13:21:28.000Z</time>
        <extensions>
          <ns3:TrackPointExtension>
            <ns3:hr>113</ns3:hr>
          </ns3:TrackPointExtension>
        </extensions>
      </trkpt>
      <trkpt lat="24.48985777795314788818359375" lon="118.1043947674334049224853515625">
        <ele>4.599999904632568359375</ele>
        <time>2026-05-07T13:21:29.000Z</time>
        <extensions>
          <ns3:TrackPointExtension>
            <ns3:hr>113</ns3:hr>
          </ns3:TrackPointExtension>
        </extensions>
      </trkpt>
      <trkpt lat="24.489866159856319427490234375" lon="118.1043863855302333831787109375">
        <ele>4.599999904632568359375</ele>
        <time>2026-05-07T13:21:30.000Z</time>
        <extensions>
          <ns3:TrackPointExtension>
            <ns3:hr>113</ns3:hr>
          </ns3:TrackPointExtension>
        </extensions>
      </trkpt>
      <trkpt lat="24.4898740388453006744384765625" lon="118.1043776683509349822998046875">
        <ele>4.80000019073486328125</ele>
        <time>2026-05-07T13:21:31.000Z</time>
        <extensions>
          <ns3:TrackPointExtension>
            <ns3:hr>113</ns3:hr>
          </ns3:TrackPointExtension>
        </extensions>
      </trkpt>
      <trkpt lat="24.4898812472820281982421875" lon="118.10436911880970001220703125">
        <ele>4.80000019073486328125</ele>
        <time>2026-05-07T13:21:32.000Z</time>
        <extensions>
          <ns3:TrackPointExtension>
            <ns3:hr>110</ns3:hr>
          </ns3:TrackPointExtension>
        </extensions>
      </trkpt>
      <trkpt lat="24.4898879528045654296875" lon="118.1043605692684650421142578125">
        <ele>4.80000019073486328125</ele>
        <time>2026-05-07T13:21:33.000Z</time>
        <extensions>
          <ns3:TrackPointExtension>
            <ns3:hr>110</ns3:hr>
          </ns3:TrackPointExtension>
        </extensions>
      </trkpt>
      <trkpt lat="24.4898946583271026611328125" lon="118.10435176827013492584228515625">
        <ele>4.80000019073486328125</ele>
        <time>2026-05-07T13:21:34.000Z</time>
        <extensions>
          <ns3:TrackPointExtension>
            <ns3:hr>110</ns3:hr>
          </ns3:TrackPointExtension>
        </extensions>
      </trkpt>
      <trkpt lat="24.48990178294479846954345703125" lon="118.1043421290814876556396484375">
        <ele>4.80000019073486328125</ele>
        <time>2026-05-07T13:21:35.000Z</time>
        <extensions>
          <ns3:TrackPointExtension>
            <ns3:hr>110</ns3:hr>
          </ns3:TrackPointExtension>
        </extensions>
      </trkpt>
      <trkpt lat="24.48990899138152599334716796875" lon="118.104331903159618377685546875">
        <ele>5</ele>
        <time>2026-05-07T13:21:36.000Z</time>
        <extensions>
          <ns3:TrackPointExtension>
            <ns3:hr>110</ns3:hr>
          </ns3:TrackPointExtension>
        </extensions>
      </trkpt>
      <trkpt lat="24.48991619981825351715087890625" lon="118.10432142578065395355224609375">
        <ele>5</ele>
        <time>2026-05-07T13:21:37.000Z</time>
        <extensions>
          <ns3:TrackPointExtension>
            <ns3:hr>105</ns3:hr>
          </ns3:TrackPointExtension>
        </extensions>
      </trkpt>
      <trkpt lat="24.48992340825498104095458984375" lon="118.10431103222072124481201171875">
        <ele>5</ele>
        <time>2026-05-07T13:21:38.000Z</time>
        <extensions>
          <ns3:TrackPointExtension>
            <ns3:hr>105</ns3:hr>
          </ns3:TrackPointExtension>
        </extensions>
      </trkpt>
      <trkpt lat="24.4899307005107402801513671875" lon="118.10430114157497882843017578125">
        <ele>5</ele>
        <time>2026-05-07T13:21:39.000Z</time>
        <extensions>
          <ns3:TrackPointExtension>
            <ns3:hr>105</ns3:hr>
          </ns3:TrackPointExtension>
        </extensions>
      </trkpt>
      <trkpt lat="24.48994637466967105865478515625" lon="118.10428169555962085723876953125">
        <ele>5.19999980926513671875</ele>
        <time>2026-05-07T13:21:40.000Z</time>
        <extensions>
          <ns3:TrackPointExtension>
            <ns3:hr>105</ns3:hr>
          </ns3:TrackPointExtension>
        </extensions>
      </trkpt>
      <trkpt lat="24.4899551756680011749267578125" lon="118.10427197255194187164306640625">
        <ele>5.19999980926513671875</ele>
        <time>2026-05-07T13:21:41.000Z</time>
        <extensions>
          <ns3:TrackPointExtension>
            <ns3:hr>105</ns3:hr>
          </ns3:TrackPointExtension>
        </extensions>
      </trkpt>
      <trkpt lat="24.48996481485664844512939453125" lon="118.1042623333632946014404296875">
        <ele>5.19999980926513671875</ele>
        <time>2026-05-07T13:21:42.000Z</time>
        <extensions>
          <ns3:TrackPointExtension>
            <ns3:hr>101</ns3:hr>
          </ns3:TrackPointExtension>
        </extensions>
      </trkpt>
      <trkpt lat="24.48997520841658115386962890625" lon="118.1042526103556156158447265625">
        <ele>5.19999980926513671875</ele>
        <time>2026-05-07T13:21:43.000Z</time>
        <extensions>
          <ns3:TrackPointExtension>
            <ns3:hr>101</ns3:hr>
          </ns3:TrackPointExtension>
        </extensions>
      </trkpt>
      <trkpt lat="24.48998610489070415496826171875" lon="118.10424263589084148406982421875">
        <ele>5.19999980926513671875</ele>
        <time>2026-05-07T13:21:44.000Z</time>
        <extensions>
          <ns3:TrackPointExtension>
            <ns3:hr>101</ns3:hr>
          </ns3:TrackPointExtension>
        </extensions>
      </trkpt>
      <trkpt lat="24.4899970851838588714599609375" lon="118.10423232614994049072265625">
        <ele>5.400000095367431640625</ele>
        <time>2026-05-07T13:21:45.000Z</time>
        <extensions>
          <ns3:TrackPointExtension>
            <ns3:hr>101</ns3:hr>
          </ns3:TrackPointExtension>
        </extensions>
      </trkpt>
      <trkpt lat="24.49000798165798187255859375" lon="118.10422201640903949737548828125">
        <ele>5.400000095367431640625</ele>
        <time>2026-05-07T13:21:46.000Z</time>
        <extensions>
          <ns3:TrackPointExtension>
            <ns3:hr>101</ns3:hr>
          </ns3:TrackPointExtension>
        </extensions>
      </trkpt>
      <trkpt lat="24.49001812376081943511962890625" lon="118.10421195812523365020751953125">
        <ele>5.400000095367431640625</ele>
        <time>2026-05-07T13:21:47.000Z</time>
        <extensions>
          <ns3:TrackPointExtension>
            <ns3:hr>101</ns3:hr>
          </ns3:TrackPointExtension>
        </extensions>
      </trkpt>
      <trkpt lat="24.49002809822559356689453125" lon="118.10420148074626922607421875">
        <ele>5.400000095367431640625</ele>
        <time>2026-05-07T13:21:48.000Z</time>
        <extensions>
          <ns3:TrackPointExtension>
            <ns3:hr>101</ns3:hr>
          </ns3:TrackPointExtension>
        </extensions>
      </trkpt>
      <trkpt lat="24.4900383241474628448486328125" lon="118.1041899137198925018310546875">
        <ele>5.19999980926513671875</ele>
        <time>2026-05-07T13:21:49.000Z</time>
        <extensions>
          <ns3:TrackPointExtension>
            <ns3:hr>98</ns3:hr>
          </ns3:TrackPointExtension>
        </extensions>
      </trkpt>
      <trkpt lat="24.49004846625030040740966796875" lon="118.1041775085031986236572265625">
        <ele>5.19999980926513671875</ele>
        <time>2026-05-07T13:21:50.000Z</time>
        <extensions>
          <ns3:TrackPointExtension>
            <ns3:hr>98</ns3:hr>
          </ns3:TrackPointExtension>
        </extensions>
      </trkpt>
      <trkpt lat="24.4900584407150745391845703125" lon="118.10416485182940959930419921875">
        <ele>5.19999980926513671875</ele>
        <time>2026-05-07T13:21:51.000Z</time>
        <extensions>
          <ns3:TrackPointExtension>
            <ns3:hr>98</ns3:hr>
          </ns3:TrackPointExtension>
        </extensions>
      </trkpt>
      <trkpt lat="24.490067325532436370849609375" lon="118.1041506864130496978759765625">
        <ele>5.19999980926513671875</ele>
        <time>2026-05-07T13:21:52.000Z</time>
        <extensions>
          <ns3:TrackPointExtension>
            <ns3:hr>98</ns3:hr>
          </ns3:TrackPointExtension>
        </extensions>
      </trkpt>
      <trkpt lat="24.49007394723594188690185546875" lon="118.10413367114961147308349609375">
        <ele>5.19999980926513671875</ele>
        <time>2026-05-07T13:21:53.000Z</time>
        <extensions>
          <ns3:TrackPointExtension>
            <ns3:hr>102</ns3:hr>
          </ns3:TrackPointExtension>
        </extensions>
      </trkpt>
      <trkpt lat="24.4900785572826862335205078125" lon="118.1041149795055389404296875">
        <ele>5.19999980926513671875</ele>
        <time>2026-05-07T13:21:54.000Z</time>
        <extensions>
          <ns3:TrackPointExtension>
            <ns3:hr>102</ns3:hr>
          </ns3:TrackPointExtension>
        </extensions>
      </trkpt>
      <trkpt lat="24.49008249677717685699462890625" lon="118.10409477911889553070068359375">
        <ele>5.19999980926513671875</ele>
        <time>2026-05-07T13:21:55.000Z</time>
        <extensions>
          <ns3:TrackPointExtension>
            <ns3:hr>102</ns3:hr>
          </ns3:TrackPointExtension>
        </extensions>
      </trkpt>
      <trkpt lat="24.49008618481457233428955078125" lon="118.104073069989681243896484375">
        <ele>5</ele>
        <time>2026-05-07T13:21:56.000Z</time>
        <extensions>
          <ns3:TrackPointExtension>
            <ns3:hr>102</ns3:hr>
          </ns3:TrackPointExtension>
        </extensions>
      </trkpt>
      <trkpt lat="24.49008936993777751922607421875" lon="118.104049265384674072265625">
        <ele>5</ele>
        <time>2026-05-07T13:21:57.000Z</time>
        <extensions>
          <ns3:TrackPointExtension>
            <ns3:hr>102</ns3:hr>
          </ns3:TrackPointExtension>
        </extensions>
      </trkpt>
      <trkpt lat="24.490092135965824127197265625" lon="118.1040237843990325927734375">
        <ele>5</ele>
        <time>2026-05-07T13:21:58.000Z</time>
        <extensions>
          <ns3:TrackPointExtension>
            <ns3:hr>102</ns3:hr>
          </ns3:TrackPointExtension>
        </extensions>
      </trkpt>
      <trkpt lat="24.490094482898712158203125" lon="118.10399620793759822845458984375">
        <ele>5</ele>
        <time>2026-05-07T13:21:59.000Z</time>
        <extensions>
          <ns3:TrackPointExtension>
            <ns3:hr>109</ns3:hr>
          </ns3:TrackPointExtension>
        </extensions>
      </trkpt>
      <trkpt lat="24.49009657837450504302978515625" lon="118.1039666198194026947021484375">
        <ele>5</ele>
        <time>2026-05-07T13:22:00.000Z</time>
        <extensions>
          <ns3:TrackPointExtension>
            <ns3:hr>109</ns3:hr>
          </ns3:TrackPointExtension>
        </extensions>
      </trkpt>
      <trkpt lat="24.49009825475513935089111328125" lon="118.10393552295863628387451171875">
        <ele>5</ele>
        <time>2026-05-07T13:22:01.000Z</time>
        <extensions>
          <ns3:TrackPointExtension>
            <ns3:hr>109</ns3:hr>
          </ns3:TrackPointExtension>
        </extensions>
      </trkpt>
      <trkpt lat="24.49009917676448822021484375" lon="118.1039035879075527191162109375">
        <ele>5</ele>
        <time>2026-05-07T13:22:02.000Z</time>
        <extensions>
          <ns3:TrackPointExtension>
            <ns3:hr>109</ns3:hr>
          </ns3:TrackPointExtension>
        </extensions>
      </trkpt>
      <trkpt lat="24.49009942822158336639404296875" lon="118.10387383215129375457763671875">
        <ele>5</ele>
        <time>2026-05-07T13:22:03.000Z</time>
        <extensions>
          <ns3:TrackPointExtension>
            <ns3:hr>109</ns3:hr>
          </ns3:TrackPointExtension>
        </extensions>
      </trkpt>
      <trkpt lat="24.49009917676448822021484375" lon="118.10384818352758884429931640625">
        <ele>5</ele>
        <time>2026-05-07T13:22:04.000Z</time>
        <extensions>
          <ns3:TrackPointExtension>
            <ns3:hr>109</ns3:hr>
          </ns3:TrackPointExtension>
        </extensions>
      </trkpt>
      <trkpt lat="24.49009976349771022796630859375" lon="118.1038274802267551422119140625">
        <ele>5</ele>
        <time>2026-05-07T13:22:05.000Z</time>
        <extensions>
          <ns3:TrackPointExtension>
            <ns3:hr>109</ns3:hr>
          </ns3:TrackPointExtension>
        </extensions>
      </trkpt>
      <trkpt lat="24.490101523697376251220703125" lon="118.103810884058475494384765625">
        <ele>5</ele>
        <time>2026-05-07T13:22:06.000Z</time>
        <extensions>
          <ns3:TrackPointExtension>
            <ns3:hr>109</ns3:hr>
          </ns3:TrackPointExtension>
        </extensions>
      </trkpt>
      <trkpt lat="24.49010445736348628997802734375" lon="118.10379638336598873138427734375">
        <ele>5</ele>
        <time>2026-05-07T13:22:07.000Z</time>
        <extensions>
          <ns3:TrackPointExtension>
            <ns3:hr>111</ns3:hr>
          </ns3:TrackPointExtension>
        </extensions>
      </trkpt>
      <trkpt lat="24.49010848067700862884521484375" lon="118.10378263704478740692138671875">
        <ele>5</ele>
        <time>2026-05-07T13:22:08.000Z</time>
        <extensions>
          <ns3:TrackPointExtension>
            <ns3:hr>111</ns3:hr>
          </ns3:TrackPointExtension>
        </extensions>
      </trkpt>
      <trkpt lat="24.49011317454278469085693359375" lon="118.10376922599971294403076171875">
        <ele>5</ele>
        <time>2026-05-07T13:22:09.000Z</time>
        <extensions>
          <ns3:TrackPointExtension>
            <ns3:hr>111</ns3:hr>
          </ns3:TrackPointExtension>
        </extensions>
      </trkpt>
      <trkpt lat="24.49011795222759246826171875" lon="118.10375648550689220428466796875">
        <ele>5</ele>
        <time>2026-05-07T13:22:10.000Z</time>
        <extensions>
          <ns3:TrackPointExtension>
            <ns3:hr>111</ns3:hr>
          </ns3:TrackPointExtension>
        </extensions>
      </trkpt>
      <trkpt lat="24.49012239463627338409423828125" lon="118.10374475084245204925537109375">
        <ele>5</ele>
        <time>2026-05-07T13:22:11.000Z</time>
        <extensions>
          <ns3:TrackPointExtension>
            <ns3:hr>111</ns3:hr>
          </ns3:TrackPointExtension>
        </extensions>
      </trkpt>
      <trkpt lat="24.49012625031173229217529296875" lon="118.10373402200639247894287109375">
        <ele>5</ele>
        <time>2026-05-07T13:22:12.000Z</time>
        <extensions>
          <ns3:TrackPointExtension>
            <ns3:hr>110</ns3:hr>
          </ns3:TrackPointExtension>
        </extensions>
      </trkpt>
      <trkpt lat="24.4901295192539691925048828125" lon="118.10372379608452320098876953125">
        <ele>5</ele>
        <time>2026-05-07T13:22:13.000Z</time>
        <extensions>
          <ns3:TrackPointExtension>
            <ns3:hr>110</ns3:hr>
          </ns3:TrackPointExtension>
        </extensions>
      </trkpt>
      <trkpt lat="24.49013228528201580047607421875" lon="118.10371323488652706146240234375">
        <ele>5</ele>
        <time>2026-05-07T13:22:14.000Z</time>
        <extensions>
          <ns3:TrackPointExtension>
            <ns3:hr>110</ns3:hr>
          </ns3:TrackPointExtension>
        </extensions>
      </trkpt>
      <trkpt lat="24.490135051310062408447265625" lon="118.1037017516791820526123046875">
        <ele>5</ele>
        <time>2026-05-07T13:22:15.000Z</time>
        <extensions>
          <ns3:TrackPointExtension>
            <ns3:hr>110</ns3:hr>
          </ns3:TrackPointExtension>
        </extensions>
      </trkpt>
      <trkpt lat="24.49013764970004558563232421875" lon="118.103689514100551605224609375">
        <ele>5</ele>
        <time>2026-05-07T13:22:16.000Z</time>
        <extensions>
          <ns3:TrackPointExtension>
            <ns3:hr>110</ns3:hr>
          </ns3:TrackPointExtension>
        </extensions>
      </trkpt>
      <trkpt lat="24.49013999663293361663818359375" lon="118.1036766059696674346923828125">
        <ele>4.80000019073486328125</ele>
        <time>2026-05-07T13:22:17.000Z</time>
        <extensions>
          <ns3:TrackPointExtension>
            <ns3:hr>108</ns3:hr>
          </ns3:TrackPointExtension>
        </extensions>
      </trkpt>
      <trkpt lat="24.49014200828969478607177734375" lon="118.10366344638168811798095703125">
        <ele>4.80000019073486328125</ele>
        <time>2026-05-07T13:22:18.000Z</time>
        <extensions>
          <ns3:TrackPointExtension>
            <ns3:hr>108</ns3:hr>
          </ns3:TrackPointExtension>
        </extensions>
      </trkpt>
      <trkpt lat="24.4901439361274242401123046875" lon="118.1036504544317722320556640625">
        <ele>5</ele>
        <time>2026-05-07T13:22:19.000Z</time>
        <extensions>
          <ns3:TrackPointExtension>
            <ns3:hr>108</ns3:hr>
          </ns3:TrackPointExtension>
        </extensions>
      </trkpt>
      <trkpt lat="24.490145780146121978759765625" lon="118.1036380492150783538818359375">
        <ele>5</ele>
        <time>2026-05-07T13:22:20.000Z</time>
        <extensions>
          <ns3:TrackPointExtension>
            <ns3:hr>108</ns3:hr>
          </ns3:TrackPointExtension>
        </extensions>
      </trkpt>
      <trkpt lat="24.4901476241648197174072265625" lon="118.10362639836966991424560546875">
        <ele>5</ele>
        <time>2026-05-07T13:22:21.000Z</time>
        <extensions>
          <ns3:TrackPointExtension>
            <ns3:hr>108</ns3:hr>
          </ns3:TrackPointExtension>
        </extensions>
      </trkpt>
      <trkpt lat="24.4901493005454540252685546875" lon="118.10361516661942005157470703125">
        <ele>5</ele>
        <time>2026-05-07T13:22:22.000Z</time>
        <extensions>
          <ns3:TrackPointExtension>
            <ns3:hr>108</ns3:hr>
          </ns3:TrackPointExtension>
        </extensions>
      </trkpt>
      <trkpt lat="24.49015089310705661773681640625" lon="118.10360393486917018890380859375">
        <ele>5</ele>
        <time>2026-05-07T13:22:23.000Z</time>
        <extensions>
          <ns3:TrackPointExtension>
            <ns3:hr>104</ns3:hr>
          </ns3:TrackPointExtension>
        </extensions>
      </trkpt>
      <trkpt lat="24.49015223421156406402587890625" lon="118.10359220020473003387451171875">
        <ele>5.19999980926513671875</ele>
        <time>2026-05-07T13:22:24.000Z</time>
        <extensions>
          <ns3:TrackPointExtension>
            <ns3:hr>104</ns3:hr>
          </ns3:TrackPointExtension>
        </extensions>
      </trkpt>
      <trkpt lat="24.49015324003994464874267578125" lon="118.10357962734997272491455078125">
        <ele>5.19999980926513671875</ele>
        <time>2026-05-07T13:22:25.000Z</time>
        <extensions>
          <ns3:TrackPointExtension>
            <ns3:hr>104</ns3:hr>
          </ns3:TrackPointExtension>
        </extensions>
      </trkpt>
      <trkpt lat="24.4901539944112300872802734375" lon="118.10356655158102512359619140625">
        <ele>5.19999980926513671875</ele>
        <time>2026-05-07T13:22:26.000Z</time>
        <extensions>
          <ns3:TrackPointExtension>
            <ns3:hr>104</ns3:hr>
          </ns3:TrackPointExtension>
        </extensions>
      </trkpt>
      <trkpt lat="24.4901543296873569488525390625" lon="118.1035535596311092376708984375">
        <ele>5.19999980926513671875</ele>
        <time>2026-05-07T13:22:27.000Z</time>
        <extensions>
          <ns3:TrackPointExtension>
            <ns3:hr>104</ns3:hr>
          </ns3:TrackPointExtension>
        </extensions>
      </trkpt>
      <trkpt lat="24.49015458114445209503173828125" lon="118.10354140587151050567626953125">
        <ele>5.19999980926513671875</ele>
        <time>2026-05-07T13:22:28.000Z</time>
        <extensions>
          <ns3:TrackPointExtension>
            <ns3:hr>104</ns3:hr>
          </ns3:TrackPointExtension>
        </extensions>
      </trkpt>
      <trkpt lat="24.49015491642057895660400390625" lon="118.10353067703545093536376953125">
        <ele>5.400000095367431640625</ele>
        <time>2026-05-07T13:22:29.000Z</time>
        <extensions>
          <ns3:TrackPointExtension>
            <ns3:hr>104</ns3:hr>
          </ns3:TrackPointExtension>
        </extensions>
      </trkpt>
      <trkpt lat="24.490155167877674102783203125" lon="118.103521205484867095947265625">
        <ele>5.400000095367431640625</ele>
        <time>2026-05-07T13:22:30.000Z</time>
        <extensions>
          <ns3:TrackPointExtension>
            <ns3:hr>100</ns3:hr>
          </ns3:TrackPointExtension>
        </extensions>
      </trkpt>
      <trkpt lat="24.49015525169670581817626953125" lon="118.1035119853913784027099609375">
        <ele>5.400000095367431640625</ele>
        <time>2026-05-07T13:22:31.000Z</time>
        <extensions>
          <ns3:TrackPointExtension>
            <ns3:hr>100</ns3:hr>
          </ns3:TrackPointExtension>
        </extensions>
      </trkpt>
      <trkpt lat="24.49015508405864238739013671875" lon="118.10350217856466770172119140625">
        <ele>5.400000095367431640625</ele>
        <time>2026-05-07T13:22:32.000Z</time>
        <extensions>
          <ns3:TrackPointExtension>
            <ns3:hr>100</ns3:hr>
          </ns3:TrackPointExtension>
        </extensions>
      </trkpt>
      <trkpt lat="24.49015441350638866424560546875" lon="118.1034915335476398468017578125">
        <ele>5.400000095367431640625</ele>
        <time>2026-05-07T13:22:33.000Z</time>
        <extensions>
          <ns3:TrackPointExtension>
            <ns3:hr>100</ns3:hr>
          </ns3:TrackPointExtension>
        </extensions>
      </trkpt>
      <trkpt lat="24.49015340767800807952880859375" lon="118.10347996652126312255859375">
        <ele>5.599999904632568359375</ele>
        <time>2026-05-07T13:22:34.000Z</time>
        <extensions>
          <ns3:TrackPointExtension>
            <ns3:hr>100</ns3:hr>
          </ns3:TrackPointExtension>
        </extensions>
      </trkpt>
      <trkpt lat="24.4901521503925323486328125" lon="118.103467561304569244384765625">
        <ele>5.599999904632568359375</ele>
        <time>2026-05-07T13:22:35.000Z</time>
        <extensions>
          <ns3:TrackPointExtension>
            <ns3:hr>100</ns3:hr>
          </ns3:TrackPointExtension>
        </extensions>
      </trkpt>
      <trkpt lat="24.49015080928802490234375" lon="118.10345490463078022003173828125">
        <ele>5.599999904632568359375</ele>
        <time>2026-05-07T13:22:36.000Z</time>
        <extensions>
          <ns3:TrackPointExtension>
            <ns3:hr>98</ns3:hr>
          </ns3:TrackPointExtension>
        </extensions>
      </trkpt>
      <trkpt lat="24.49014938436448574066162109375" lon="118.10344241559505462646484375">
        <ele>5.599999904632568359375</ele>
        <time>2026-05-07T13:22:37.000Z</time>
        <extensions>
          <ns3:TrackPointExtension>
            <ns3:hr>98</ns3:hr>
          </ns3:TrackPointExtension>
        </extensions>
      </trkpt>
      <trkpt lat="24.49014804325997829437255859375" lon="118.10343034565448760986328125">
        <ele>5.599999904632568359375</ele>
        <time>2026-05-07T13:22:38.000Z</time>
        <extensions>
          <ns3:TrackPointExtension>
            <ns3:hr>98</ns3:hr>
          </ns3:TrackPointExtension>
        </extensions>
      </trkpt>
      <trkpt lat="24.4901466183364391326904296875" lon="118.10341894626617431640625">
        <ele>5.80000019073486328125</ele>
        <time>2026-05-07T13:22:39.000Z</time>
        <extensions>
          <ns3:TrackPointExtension>
            <ns3:hr>98</ns3:hr>
          </ns3:TrackPointExtension>
        </extensions>
      </trkpt>
      <trkpt lat="24.4901449419558048248291015625" lon="118.10340796597301959991455078125">
        <ele>5.80000019073486328125</ele>
        <time>2026-05-07T13:22:40.000Z</time>
        <extensions>
          <ns3:TrackPointExtension>
            <ns3:hr>97</ns3:hr>
          </ns3:TrackPointExtension>
        </extensions>
      </trkpt>
      <trkpt lat="24.49014301411807537078857421875" lon="118.103397153317928314208984375">
        <ele>5.80000019073486328125</ele>
        <time>2026-05-07T13:22:41.000Z</time>
        <extensions>
          <ns3:TrackPointExtension>
            <ns3:hr>97</ns3:hr>
          </ns3:TrackPointExtension>
        </extensions>
      </trkpt>
      <trkpt lat="24.490140415728092193603515625" lon="118.1033872626721858978271484375">
        <ele>5.80000019073486328125</ele>
        <time>2026-05-07T13:22:42.000Z</time>
        <extensions>
          <ns3:TrackPointExtension>
            <ns3:hr>97</ns3:hr>
          </ns3:TrackPointExtension>
        </extensions>
      </trkpt>
      <trkpt lat="24.4901362247765064239501953125" lon="118.103379718959331512451171875">
        <ele>5.80000019073486328125</ele>
        <time>2026-05-07T13:22:43.000Z</time>
        <extensions>
          <ns3:TrackPointExtension>
            <ns3:hr>97</ns3:hr>
          </ns3:TrackPointExtension>
        </extensions>
      </trkpt>
      <trkpt lat="24.4901306927204132080078125" lon="118.10337376780807971954345703125">
        <ele>5.80000019073486328125</ele>
        <time>2026-05-07T13:22:44.000Z</time>
        <extensions>
          <ns3:TrackPointExtension>
            <ns3:hr>98</ns3:hr>
          </ns3:TrackPointExtension>
        </extensions>
      </trkpt>
      <trkpt lat="24.49012591503560543060302734375" lon="118.1033661402761936187744140625">
        <ele>6</ele>
        <time>2026-05-07T13:22:45.000Z</time>
        <extensions>
          <ns3:TrackPointExtension>
            <ns3:hr>98</ns3:hr>
          </ns3:TrackPointExtension>
        </extensions>
      </trkpt>
      <trkpt lat="24.4901226460933685302734375" lon="118.1033560819923877716064453125">
        <ele>6</ele>
        <time>2026-05-07T13:22:46.000Z</time>
        <extensions>
          <ns3:TrackPointExtension>
            <ns3:hr>98</ns3:hr>
          </ns3:TrackPointExtension>
        </extensions>
      </trkpt>
      <trkpt lat="24.490120299160480499267578125" lon="118.1033450178802013397216796875">
        <ele>6</ele>
        <time>2026-05-07T13:22:47.000Z</time>
        <extensions>
          <ns3:TrackPointExtension>
            <ns3:hr>98</ns3:hr>
          </ns3:TrackPointExtension>
        </extensions>
      </trkpt>
      <trkpt lat="24.4901184551417827606201171875" lon="118.10333378612995147705078125">
        <ele>6.19999980926513671875</ele>
        <time>2026-05-07T13:22:48.000Z</time>
        <extensions>
          <ns3:TrackPointExtension>
            <ns3:hr>98</ns3:hr>
          </ns3:TrackPointExtension>
        </extensions>
      </trkpt>
      <trkpt lat="24.49011686258018016815185546875" lon="118.10332297347486019134521484375">
        <ele>6.19999980926513671875</ele>
        <time>2026-05-07T13:22:49.000Z</time>
        <extensions>
          <ns3:TrackPointExtension>
            <ns3:hr>95</ns3:hr>
          </ns3:TrackPointExtension>
        </extensions>
      </trkpt>
      <trkpt lat="24.4901154376566410064697265625" lon="118.10331190936267375946044921875">
        <ele>6.19999980926513671875</ele>
        <time>2026-05-07T13:22:50.000Z</time>
        <extensions>
          <ns3:TrackPointExtension>
            <ns3:hr>95</ns3:hr>
          </ns3:TrackPointExtension>
        </extensions>
      </trkpt>
      <trkpt lat="24.49011384509503841400146484375" lon="118.1033004261553287506103515625">
        <ele>6.19999980926513671875</ele>
        <time>2026-05-07T13:22:51.000Z</time>
        <extensions>
          <ns3:TrackPointExtension>
            <ns3:hr>95</ns3:hr>
          </ns3:TrackPointExtension>
        </extensions>
      </trkpt>
      <trkpt lat="24.49011183343827724456787109375" lon="118.10328844003379344940185546875">
        <ele>6.400000095367431640625</ele>
        <time>2026-05-07T13:22:52.000Z</time>
        <extensions>
          <ns3:TrackPointExtension>
            <ns3:hr>95</ns3:hr>
          </ns3:TrackPointExtension>
        </extensions>
      </trkpt>
      <trkpt lat="24.49010948650538921356201171875" lon="118.10327611863613128662109375">
        <ele>6.400000095367431640625</ele>
        <time>2026-05-07T13:22:53.000Z</time>
        <extensions>
          <ns3:TrackPointExtension>
            <ns3:hr>95</ns3:hr>
          </ns3:TrackPointExtension>
        </extensions>
      </trkpt>
      <trkpt lat="24.49010663665831089019775390625" lon="118.10326379723846912384033203125">
        <ele>6.400000095367431640625</ele>
        <time>2026-05-07T13:22:54.000Z</time>
        <extensions>
          <ns3:TrackPointExtension>
            <ns3:hr>95</ns3:hr>
          </ns3:TrackPointExtension>
        </extensions>
      </trkpt>
      <trkpt lat="24.49010320007801055908203125" lon="118.10325189493596553802490234375">
        <ele>6.400000095367431640625</ele>
        <time>2026-05-07T13:22:55.000Z</time>
        <extensions>
          <ns3:TrackPointExtension>
            <ns3:hr>95</ns3:hr>
          </ns3:TrackPointExtension>
        </extensions>
      </trkpt>
      <trkpt lat="24.49009758420288562774658203125" lon="118.1032390706241130828857421875">
        <ele>6.400000095367431640625</ele>
        <time>2026-05-07T13:22:57.000Z</time>
        <extensions>
          <ns3:TrackPointExtension>
            <ns3:hr>95</ns3:hr>
          </ns3:TrackPointExtension>
        </extensions>
      </trkpt>
      <trkpt lat="24.4900919683277606964111328125" lon="118.10322943143546581268310546875">
        <ele>6.400000095367431640625</ele>
        <time>2026-05-07T13:22:58.000Z</time>
        <extensions>
          <ns3:TrackPointExtension>
            <ns3:hr>95</ns3:hr>
          </ns3:TrackPointExtension>
        </extensions>
      </trkpt>
    </trkseg>
  </trk>
</gpx>
